Name,Phone Number,Image Links 1,Image Links 2,Image Links 3,Google maps ID,Latitude,Longitude,Adress,Website,,,,,,,,,,,,,,,,,,
A. Meier Treuhand AG,+41 44 202 20 22,https://lh3.googleusercontent.com/p/AF1QipOCocBo9lzU0xUKEb8vC30jll-6pMhHOxpeyT-b=s680-w680-h510,https://lh3.googleusercontent.com/p/AF1QipP3MNVTzbngj2tK1wPrBe1mSVMVDXt8iSPD3g4E=s680-w680-h510,,ChIJk5VJ3amgmkcR6D_M-Dv3BXg,@47.3727476,8.5404171,"Limmatquai 70, 8001 Zürich, Switzerland",http://www.amth.ch/,,,,,,,,,,,,,,,,,,
ABACONS Treuhand Zürich,+41 43 499 00 60,https://lh5.googleusercontent.com/p/AF1QipOyNCrZM0CpBCI0bfFJx2aZaCYZSTa2GEJSiyqK=w736-h240-k-no,https://lh3.googleusercontent.com/p/AF1QipPXdv_joY-U2seA9PjKEOfdxlaFm1XZbjrQgPKi=s680-w680-h510,https://lh3.googleusercontent.com/p/AF1QipOxSJKi-oYEYbSWhQAzLJ8fRYWr5zJuSfAjM7lJ=s680-w680-h510,ChIJg-QSkPoJkEcRZgcNnz4MXQc,@47.359635,8.5243832,"Waffenplatzstrasse 41, 8002 Zürich, Switzerland",https://www.abacons.ch/,,,,,,,,,,,,,,,,,,
Adlatus Treuhand AG,+41 44 342 55 30,,,,ChIJ4Qd3B04KkEcRmFM1ELgFdIg,@47.3983093,8.504824,"Ottenbergstrasse 61, 8049 Zürich, Switzerland",,,,,,,,,,,,,,,,,,,
adminster treuhand zürich gmbh,+41 44 518 86 00,https://lh5.googleusercontent.com/p/AF1QipPAR5sRoE6iccT7ufho8kxvU_BUW-MiqXNy4t-f=w408-h544-k-no,https://lh3.googleusercontent.com/p/AF1QipOA8pnIiqarTFJWrMWAR6An7s25nccuGQi0ivtq=s680-w680-h510,https://lh3.googleusercontent.com/p/AF1QipMfRwTxf6iFreetj744CBsZjoofdok6Pvt6Y8nK=s680-w680-h510,ChIJT2XkVaqhmkcRbkzBRdpRG0w,@47.3627626,8.5553589,"Forchstrasse 60, 8008 Zürich, Switzerland",http://www.adminster.ch/,,,,,,,,,,,,,,,,,,
Aeberli Treuhand AG,+41 44 265 66 66,https://lh3.googleusercontent.com/p/AF1QipOdJsR5sI9u5g1cgcXgKcXi3m6zHVtsmvtl4c5w=s680-w680-h510,https://lh3.googleusercontent.com/p/AF1QipPX948-wLjH-wU8uNI_Y9vqPp_1INWhx88x1WBz=s680-w680-h510,https://lh3.googleusercontent.com/p/AF1QipMk-eEcyhIvkVI0U1m7PNrjtWzCy_6w1Gsvrpz3=s680-w680-h510,ChIJ00geik2nmkcRdWzF2gjUMZ8,@47.3625196,8.5488901,"Zimmergasse 17, 8008 Zürich, Switzerland",http://www.aeberli.ch/,,,,,,,,,,,,,,,,,,
Aerzte Treuhand med AG,+41 44 487 34 10,https://lh3.googleusercontent.com/p/AF1QipPkul4MAG0N0sS1mLDofyKPe4AvCabSD_53v2JH=s680-w680-h510,,,ChIJ8QzZ5IYKkEcR9HM_e6pWVh4,@47.4088006,8.5422639,"Baumackerstrasse 24, 8050 Zürich, Switzerland",https://turicum-treuhand.ch/,,,,,,,,,,,,,,,,,,
"AG für Treuhand, Betriebs- Führung und -Beratung",+41 43 322 11 99,,,,ChIJX6sSGxwKkEcRKB0H_qRcqyc,@47.3720759,8.5241726,"Freyastrasse 14, 8004 Zürich, Switzerland",,,,,,,,,,,,,,,,,,,
Agram Treuhand AG,+41 43 210 33 82,,,,ChIJ4VUJ1CQKkEcRFUAY6YSxP6w,@47.3785209,8.5083181,"Hardstrasse 4, 8004 Zürich, Switzerland",,,,,,,,,,,,,,,,,,,
AGRO-Treuhand Region Zürich AG,+41 52 355 01 10,https://lh3.googleusercontent.com/p/AF1QipPw_xeFoOWoI9b9t0hY6yJjvd_muO9MIQRp3Bhd=s680-w680-h510,https://lh3.googleusercontent.com/p/AF1QipNayIPQ1lmG-AQ2nNJO4u7JiYc7TLOVHMUZp5ip=s680-w680-h510,,ChIJnRQujAChmkcRdtEyHj--vpk,@47.4011696,8.6006023,"Lagerstrasse 14, 8600 Dübendorf, Switzerland",http://www.atzuerich.ch/,,,,,,,,,,,,,,,,,,
Alfida Treuhand AG,+41 44 491 71 54,,,,ChIJqaC72yQKkEcRSFwgu7TQ1nM,@47.3779925,8.508863,"Badenerstrasse 334, 8004 Zürich, Switzerland",,,,,,,,,,,,,,,,,,,
Alleedo Treuhand AG,+41 44 388 38 11,,,,ChIJ7c_wrk-nmkcRsrOeEUADFSs,@47.3580296,8.5500011,"Dufourstrasse 119, 8008 Zürich, Switzerland",,,,,,,,,,,,,,,,,,,
Alpinum Accounting AG | Treuhänder für Finanz- & Lohnbuchhaltung,+41 58 502 75 70,https://lh3.googleusercontent.com/p/AF1QipOvThsV7qK6P-fGpDj0qs9P0md6JD1liNEVDNBn=s680-w680-h510,https://lh3.googleusercontent.com/p/AF1QipNnOITodipI7q0raWpvF9LyrvtmoMq6AFenjJP2=s680-w680-h510,,ChIJq5klQvT5j0cRf9I9TPbIUAY,@47.3720856,8.529314,"Talstrasse 83, 8001 Zürich, Switzerland",http://www.alpinum-accounting.ch/,,,,,,,,,,,,,,,,,,
Alvera Treuhand AG Zürich,+41 44 311 40 54,https://lh5.googleusercontent.com/p/AF1QipPTfmPgRDe7EyVfDt18BRYrkTo3GNrGmsM-GBBv=w120-h160-k-no,https://lh3.googleusercontent.com/p/AF1QipNTN_NKKDFymoODM3X2FfsJexT1cvwWioUrKdXy=s680-w680-h510,,ChIJVcCHkIYKkEcRySvAqbykJnw,@47.4100713,8.542786,"Querstrasse 8, 8050 Zürich, Switzerland",https://www.alvera.ch/,,,,,,,,,,,,,,,,,,
Amarillo Treuhand Daniel Bosshard,+41 43 443 17 17,,,,ChIJSev-bGkKkEcRnhlEB4c--xU,@47.3870573,8.535547,"Schwingerstrasse 9, 8006 Zürich, Switzerland",https://www.amarillo-treuhand.ch/,,,,,,,,,,,,,,,,,,
Andesa GmbH c/o KBT Treuhand AG Zürich,+41 44 250 40 60,,,,ChIJNSmkdVKnmkcRbUxxWWpvOOw,@47.362379,8.548583,"Zimmergasse 16, 8008 Zürich, Switzerland",,,,,,,,,,,,,,,,,,,
Angel Treuhand,+41 76 320 11 33,https://lh3.googleusercontent.com/p/AF1QipNWLqzflb3EU_1RnvVLegdeCxMRPJrR2wCtJfPe=s1360-w1360-h1020,https://lh3.googleusercontent.com/p/AF1QipPuNerzoegt3UfoapLQp_VEplRDsPJkHCyrNc6E=s1360-w1360-h1020,https://lh3.googleusercontent.com/p/AF1QipNb0saRHaoqVhL6OkKoc7jrd7D4j10ZNJ9j85ie=s1360-w1360-h1020,ChIJHTARbgQLkEcRLzJNltvTGFQ,@47.3752156,8.4823901,"Albisriederstrasse 369, 8047 Zürich, Switzerland",http://www.angelgmbh.ch/,,,,,,,,,,,,,,,,,,
Arcus Treuhand AG,+41 44 487 10 40,,,,ChIJoxEGMOcJkEcRmPO1RAzcJx4,@47.3496963,8.5259149,"Abendweg 4, 8038 Zürich, Switzerland",http://www.arcustreuhand.ch/,,,,,,,,,,,,,,,,,,
Argo Treuhand AG,+41 44 262 07 70,,,,ChIJyd2Y7FKnmkcRed47l_SrT24,@47.3645101,8.5499896,"Holbeinstrasse 34, 8008 Zürich, Switzerland",http://www.argo.ch/,,,,,,,,,,,,,,,,,,
Arium AG c/o MFT Meier Finanz-Treuhand AG,+41 44 226 16 60,,,,ChIJG6ldPQYKkEcR6qme5RQ77f0,@47.3760054,8.5341973,"Lintheschergasse 10, 8001 Zürich, Switzerland",,,,,,,,,,,,,,,,,,,
Asta-Treuhand + Revisions AG,+41 44 213 61 40,https://lh3.googleusercontent.com/p/AF1QipM7qVh2GjEONHp7aDNefMo3cgKVjhQxYfLZPYG1=s680-w680-h510,https://lh3.googleusercontent.com/p/AF1QipO8kLBIBcBH2fh1_6fO9uJzW0in6-H7xGyrdDSG=s680-w680-h510,https://lh3.googleusercontent.com/p/AF1QipOu0_9Ja8dAxTID_3d0pgnaqmaKYmZGPI6CnY9x=s680-w680-h510,ChIJjb-zowgKkEcRsvCZ_myNEtw,@47.4182807,8.5550469,"Leutschenbachstrasse 95, 8050 Zürich, Switzerland",http://astatreuhand.ch/,,,,,,,,,,,,,,,,,,
ATC Treuhand GmbH,+41 44 840 07 72,https://lh3.googleusercontent.com/p/AF1QipNQXSVuY2ibotlbS_33170PC3QdyhDMHb0lbNk2=s680-w680-h510,https://lh3.googleusercontent.com/p/AF1QipPstFz-5l8YqapgCIvmoxpdZBVQwNhFateFRWDi=s680-w680-h510,https://lh3.googleusercontent.com/p/AF1QipPd8krkpZg7V9v32uhzVOn36eypuNTGMLu0alHQ=s680-w680-h510,ChIJsWcO8TWnmkcR5Jk-pJULJEM,@47.3608723,8.5609528,"Hedwigstrasse 12, 8032 Zürich, Switzerland",http://www.atc-treuhand.ch/,,,,,,,,,,,,,,,,,,
ATI Treuhand AG,+41 44 222 09 35,,,,ChIJlVE-CAQKkEcRP1Rr4TAHi-E,@47.3722847,8.5331561,"Nüschelerstrasse 31, 8001 Zürich, Switzerland",http://www.ati-treuhand.ch/,,,,,,,,,,,,,,,,,,
Atrega Treuhand AG,+41 43 322 11 33,,https://lh3.googleusercontent.com/p/AF1QipOn7HEgN6owzrbVg3sW4d_KjK7qRlzNQHepV_UC=s2732-w2732-h1250-rw,,ChIJhVbCeRkKkEcRdF6JQOCBX7Q,@47.375192,8.3796997,"Kernstrasse 10, 8004 Zürich, Switzerland",http://www.atrega.ch/,,,,,,,,,,,,,,,,,,
"Atrega Treuhand AG, Treuhandunternehmen für Steuern",41433221133,,,,ChIJx-GedxkKkEcR8_KYJsdkVas,@47.3766279,8.5247282,"Kernstrasse, 8004 Zürich, Switzerland",http://www.atregatreuhand.ch/,,,,,,,,,,,,,,,,,,
Avalon Treuhand AG,+41 43 888 64 30,,https://lh3.googleusercontent.com/p/AF1QipNk859p1cIWyA2zIRNn4EKjcdNsesbNE4pV2cPc=s680-w680-h510,,ChIJJ3mkkaegmkcRNMUNZrNvNTU,@47.369107,8.5322564,"Am Schanzengraben 27, 8002 Zürich, Switzerland",https://avalon-treuhand.ch/,,,,,,,,,,,,,,,,,,
aviena ag · Digitale Treuhandleistungen,41445202875,,,,ChIJBWkDiaGhmkcRcWVT9VnhDno,@47.4195,8.5542553,"Schärenmoosstrasse 77, 8052 Zürich, Switzerland",http://www.aviena.ch/,,,,,,,,,,,,,,,,,,
avisora Treuhand AG,+41 44 541 01 90,,https://lh3.googleusercontent.com/p/AF1QipPiRHP960wkXkqC3jSIAatiZ54K7sqcWNv3wV3g=s680-w680-h510,,ChIJfR8GIQahmkcRhUMcBmYRM9g,@47.4148881,8.557419,"Hagenholzstrasse 85A, 8050 Zürich, Switzerland",https://www.avisora.ch/,,,,,,,,,,,,,,,,,,
BALVERO Treuhand AG,+41 44 586 84 94,https://lh3.googleusercontent.com/p/AF1QipNEBfa_kdm2OOli0AMuwRdvv2DCHBkNnmRJdFrX=s680-w680-h510,https://lh3.googleusercontent.com/p/AF1QipONTCLazKPGJAua0AmkPtHHolMIAU6AY2XUy0hf=s680-w680-h510,https://lh3.googleusercontent.com/p/AF1QipOqD2_zO23oOD8bqOu_sFrLBkLl3JL6xwdsuJJP=s680-w680-h510,ChIJqXEYQj8KkEcRQH2QsKnUWJw,@47.3691048,8.532283,"Am Schanzengraben 27, 8002 Zürich, Switzerland",http://www.balvero-treuhand.ch/,,,,,,,,,,,,,,,,,,
Bau-Stein Treuhand GmbH - kaufen und verkaufen von GmbH's,+41 44 500 21 31,https://lh3.googleusercontent.com/p/AF1QipOdKFeI4DCK0AYGLpjDaEYigb-6ZyrXkv6LblV5=s680-w680-h510,https://lh3.googleusercontent.com/p/AF1QipOxEm_AdbLD8fkXztUguq5mil74cQQasI4Dq9ny=s680-w680-h510,https://lh3.googleusercontent.com/p/AF1QipN_410uKebDKgvcqVmI8zypQO7tXMWnEmHnxPnQ=s680-w680-h510,ChIJhfO_UwAKkEcRV0BSQrFUBI8,@47.3689368,8.5357671,"Talstrasse 20, 8001 Zürich, Switzerland",https://bau-stein-treuhand.ch/,,,,,,,,,,,,,,,,,,
BELFIDA Treuhand AG,+41 44 491 33 15,,,,ChIJU56YB74LkEcRtWD-YjH1AtQ,@47.3779925,8.508863,"Badenerstrasse 334, 8004 Zürich, Switzerland",,,,,,,,,,,,,,,,,,,
Bellevue Treuhand GmbH,+41 44 780 80 01,https://lh3.googleusercontent.com/p/AF1QipOjevKdB1Mqga7pgoLRT6ZZFws7bV_H5ReDiWFN=s680-w680-h510,https://lh3.googleusercontent.com/p/AF1QipP0SEnny3_SVFCUjFwdkpMpFosMbMcItGTyDLFe=s680-w680-h510,https://lh3.googleusercontent.com/p/AF1QipOgE9p5LOtBPLdxgyoSXxuLbG5v0x_E3K12IHa2=s680-w680-h510,ChIJUcj8pZmhmkcRwK3wSjf2g8M,@47.3679799,8.5430195,"Torgasse 6, 8001 Zürich, Switzerland",https://bellevuetreuhand.ch/,,,,,,,,,,,,,,,,,,
Besis - Treuhand,+41 44 523 66 86,,,,ChIJx-3pfBELkEcR1ScrrqMDcXQ,@47.3848796,8.5312381,"Sihlquai 131, 8005 Zürich, Switzerland",,,,,,,,,,,,,,,,,,,
Betschon Treuhand AG,+41 44 439 70 10,,,,ChIJUX4MBrcLkEcRCnuJ7UdQ6oY,@47.3930956,8.4872441,"Aargauerstrasse 250, 8048 Zürich, Switzerland",,,,,,,,,,,,,,,,,,,
Binder Treuhand AG,+41 44 341 35 55,,https://lh3.googleusercontent.com/p/AF1QipMuBQnl_sqNUO75eQLnN-EwLjSGJa7-Ck2dIIh1=s680-w680-h510,https://lh3.googleusercontent.com/p/AF1QipPhUKtr9qwn_ipl7GH25M9dSoCyyIgTM9_eQjSH=s680-w680-h510,ChIJp1SuNawLkEcRxsCaqL8FDgo,@47.4022176,8.4950421,"Limmattalstrasse 206, 8049 Zürich, Switzerland",http://www.binder-treuhand.ch/,,,,,,,,,,,,,,,,,,
Blum Verwaltungs- und Treuhand AG,+41 44 488 40 60,,,,ChIJIRYBMQQKkEcRkadzSl8MgrY,@47.3738864,8.5295785,"Löwenstrasse 20, 8001 Zürich, Switzerland",http://www.blum-treuhand.ch/,,,,,,,,,,,,,,,,,,
Bosshard Treuhand,+41 77 403 35 44,,,,ChIJFWf-ZxAKkEcR7JKE8Rz1s8U,@47.3785929,8.4935041,"Militärstrasse 85, 8004 Zürich, Switzerland",http://www.bosshard-treuhand.ch/,,,,,,,,,,,,,,,,,,
BSP Treuhand AG,+41 44 380 82 82,,,,ChIJWfNGBE-nmkcRNFBngRYbNL4,@47.3580244,8.5513082,"Lindenstrasse 38, 8008 Zürich, Switzerland",http://www.bsptreuhand.ch/,,,,,,,,,,,,,,,,,,
BTO Treuhand AG,+41 44 381 81 81,https://lh3.googleusercontent.com/p/AF1QipMJGGSxo1PZdQM_93uSDslS7B-wlRdW1xFDmO0p=s680-w680-h510,https://lh3.googleusercontent.com/p/AF1QipNClrEEROUc2OAyaSWAGKnS3JRkjkATttPkvcTx=s680-w680-h510,,ChIJUQ4ByjWnmkcRmlv2b3B_Po4,@47.3587813,8.5526199,"Riesbachstrasse 57, 8008 Zürich, Switzerland",https://www.bto-ag.ch/,,,,,,,,,,,,,,,,,,
Budliger Treuhand AG,+41 44 289 45 45,https://lh5.googleusercontent.com/p/AF1QipPRo3GL9YSdgFmfwv_zZBOU7xzW9M71SmO9MAzx=w408-h240-k-no-pi-10-ya63.125004-ro-0-fo100,,,ChIJcfDwS-UJkEcROamHEpEkkxY,@47.3575995,8.5241326,"Waffenplatzstrasse 64, 8002 Zürich, Switzerland",https://www.budliger.ch/,,,,,,,,,,,,,,,,,,
Caminada Treuhand AG Zürich,+41 44 386 99 00,https://lh3.googleusercontent.com/p/AF1QipNHkFOb0SDp-5STKauadH2LrzeS5USz3z8wEuC9=s680-w680-h510,https://lh3.googleusercontent.com/p/AF1QipPV01WQt6eavr8I1fD7dPYifrnkN1-iY3uKCyyx=s680-w680-h510,,ChIJZ-TR-UynmkcR4UDKV1A-PPA,@47.3582434,8.5555015,"Riesbachstrasse 61, 8008 Zürich, Switzerland",https://www.caminada.ch/,,,,,,,,,,,,,,,,,,
CC Finanz und Treuhand AG / Firmengründung Buchhaltung,+41 44 515 33 10,https://lh3.googleusercontent.com/p/AF1QipPrsVlrl_GvABTiyiwHFc96mS0rBloo0yUuHFFO=s1360-w1360-h1020,https://lh3.googleusercontent.com/p/AF1QipPo_hNWErkyeiWUchBonEaXe1ANHa2SZeyzW6Fu=s1360-w1360-h1020,https://lh3.googleusercontent.com/p/AF1QipNMPHfkbq3UXabqbtZDP8O8gAG-OmFSY51rwhVK=s1360-w1360-h1020,ChIJ2aYyUgAKkEcRpFgwJ8HPf-4,@47.3688847,8.5384107,"Talstrasse 20, 8001 Zürich, Switzerland",https://www.cc-finanz-treuhand.ch/,,,,,,,,,,,,,,,,,,
CD Treuhand und Revision,+41 44 432 49 10,,,,ChIJn4OQe24LkEcRqzZq_CNv9vY,@47.386247,8.4745744,"Meientalstrasse 75, 8048 Zürich, Switzerland",,,,,,,,,,,,,,,,,,,
"Central Treuhand, Alfred Ulrich",,,,,ChIJ5a3yiKegmkcRDLrS6ZupNnI,@47.3780633,8.5414874,"Weinbergstrasse 11, 8001 Zürich, Switzerland",,,,,,,,,,,,,,,,,,,
Clemenz + Guntern Treuhand AG,+41 44 454 11 11,,,,ChIJD5MvSh4KkEcRAArqJ-qvjro,@47.3695136,8.5178466,"Zurlindenstrasse 59, 8003 Zürich, Switzerland",,,,,,,,,,,,,,,,,,,
CMT Partners AG Treuhand und Revisionsgesellschaft,+41 58 944 44 00,,,,ChIJw_45Xk-nmkcRiiV58U0_zWE,@47.3560758,8.5514896,"Dufourstrasse 147, 8008 Zürich, Switzerland",,,,,,,,,,,,,,,,,,,
Commercial Treuhand- und Verwaltungs AG,+41 43 477 44 11,https://lh3.googleusercontent.com/p/AF1QipO-MiTWd6ftPOn4A67vvJKUzkVFfT9c84MDG9FW=s680-w680-h510,,,ChIJmSqOm1GnmkcRMGgVJB7mIAc,@47.3563123,8.5493945,"Bellerivestrasse 53, 8008 Zürich, Switzerland",http://www.commercial-treuhand.ch/,,,,,,,,,,,,,,,,,,
Confidas Treuhand AG,+41 43 311 72 80,,,,ChIJ6RtuMiAKkEcRFc9vnhpAFEc,@47.3707821,8.5138124,"Birmensdorferstrasse 198, 8003 Zürich, Switzerland",http://www.confidas.ch/,,,,,,,,,,,,,,,,,,
Confidermes Treuhand AG,+41 44 241 72 66,,,,ChIJvwpshBkKkEcR6pEE-0Flcyg,@47.3756938,8.5218331,"Kanzleistrasse 78, 8004 Zürich, Switzerland",,,,,,,,,,,,,,,,,,,
Consa Treuhand AG,+41 44 267 30 70,,,,ChIJjQXzRh2nmkcRcrB2kfSIJVc,@47.3669009,8.5304081,"Freigutstrasse 4, 8002 Zürich, Switzerland",http://www.consa.ch/,,,,,,,,,,,,,,,,,,
Consil Revisions und Treuhand AG,+41 44 252 30 43,,,,ChIJO3nTxbGgmkcR524sxUeDaq4,@47.3721124,8.5527436,"Eleonorenstrasse 2, 8032 Zürich, Switzerland",,,,,,,,,,,,,,,,,,,
Consularia Treuhand AG,+41 43 377 11 02,,,,ChIJD0bqpnenmkcR0kMWupP4klM,@47.3293191,8.5409658,"Alte Landstrasse 55, 8802 Kilchberg, Switzerland",https://www.consularia-treuhand.ch/,,,,,,,,,,,,,,,,,,
"Continor Treuhand Anstalt, Vaduz, Zweigniederlassung Zürich",+41 43 523 10 10,https://lh5.googleusercontent.com/p/AF1QipPfUbihfayd-eCaKDmUr4lAT0aut1diBOpuO7MD=w408-h555-k-no,,,ChIJpxj86E-nmkcRC7VaoHdRbww,@47.3654884,8.5322228,"Bellerivestrasse 42, 8008 Zürich, Switzerland",http://www.continor.li/,,,,,,,,,,,,,,,,,,
Contor Treuhand AG,+41 44 215 24 00,https://lh5.googleusercontent.com/p/AF1QipN30FHRqG1SWOqKXcfFC0uArGjbhtX8fUuBMnSc=w290-h160-k-no,https://lh3.googleusercontent.com/p/AF1QipObB80gv7tfRLsRb3s8PWS1xywVXAISNR-wIMmd=s680-w680-h510,https://lh3.googleusercontent.com/p/AF1QipM0_7BgEWtOrIwJ5VrSmGVPwFTqEqGpakE0bkI5=s680-w680-h510,ChIJh9gNCQQKkEcRr8WE1gOQOlA,@47.3882,8.5378904,"Weinbergstrasse 131, 8006 Zürich, Switzerland",http://www.contor-treuhand.ch/,,,,,,,,,,,,,,,,,,
Contra Treuhand & Verwaltungs AG,+41 44 240 25 85,,,,ChIJe8tjXyMKkEcRwwmXdx_Sp7g,@47.3775429,8.5107874,"Zypressenstrasse 56, 8004 Zürich, Switzerland",,,,,,,,,,,,,,,,,,,
Dahinden Treuhand,+41 79 734 99 80,,,,ChIJmwNz8xAKkEcRIp6RwwBqEwk,@47.3784656,8.5261298,"Zwinglistrasse, 8004 Zürich, Switzerland",https://dahinden-treuhand.ch/,,,,,,,,,,,,,,,,,,
DeKa Gastronomie-Treuhand AG,+41 44 508 56 11,https://lh3.googleusercontent.com/p/AF1QipMWTR_hkeFH5K4fOPwn9NeU5i0dQcUGCGm9m5KU=s680-w680-h510,https://lh3.googleusercontent.com/p/AF1QipPzvqoTiQKwT37Ucht01HG7dxrT1tc3GV43JHpI=s680-w680-h510,,ChIJV8NV0amgmkcR0jxXNPX3tZQ,@47.3737557,8.5428695,"Limmatquai 84/Etage 3, 8001 Zürich, Switzerland",http://www.gastro-treuhand.ch/,,,,,,,,,,,,,,,,,,
Dipçin Treuhand,+41 43 344 51 31,,,,ChIJDXoIPhkKkEcR_fQng_HKrog,@47.3741585,8.5199559,"Badenerstrasse 141, 8004 Zürich, Switzerland",http://www.dipcintreuhand.ch/,,,,,,,,,,,,,,,,,,
"Dr. Iten, Dudli + Partner Steuerberatung und Treuhand AG",+41 44 308 25 50,https://lh3.googleusercontent.com/p/AF1QipMG7d8okmJHtl7iXGuPXdYPplcxzWQeJ75PqB4M=s680-w680-h510,https://lh3.googleusercontent.com/p/AF1QipMZEVcZ10ImsfXANRMZ7Y5giKJvtRwVrcxF3XiV=s680-w680-h510,,ChIJ70EiSJoKkEcRbWNppCANVVM,@47.4192916,8.5439001,"Bahnhaldenstrasse 6, 8052 Zürich, Switzerland",http://www.idp-treuhand.ch/,,,,,,,,,,,,,,,,,,
Dr. Stehrenberger Brigitt,+41 44 212 27 34,,,,ChIJi645M88LkEcR-bIBa2p56qg,@47.3721745,8.5389806,"Schipfe 11, 8001 Zürich, Switzerland",,,,,,,,,,,,,,,,,,,
Ebnöther Treuhand GmbH,+41 44 350 46 30,,,,ChIJt7VWAwYLkEcRVAXX64tEIUE,@47.3862585,8.5382938,"Kinkelstrasse 10, 8006 Zürich, Switzerland",,,,,,,,,,,,,,,,,,,
Ebs Edith B. Strebel Treuhand & Administration,+41 43 810 56 56,,,,ChIJLVusS1KnmkcRI6WEZcMl6Vc,@47.3626154,8.5458458,"Dufourstrasse 40, 8008 Zürich, Switzerland",http://www.ebstreuhand.com/,,,,,,,,,,,,,,,,,,
Ecor Treuhand & Wirtschaftsberatung AG,+41 44 215 51 11,,,,ChIJ2aYyUgAKkEcRYcjdsIIAPEA,@47.3689498,8.5381229,"Talstrasse 20, 8022 Zürich, Switzerland",,,,,,,,,,,,,,,,,,,
EGELI Treuhand AG,+41 44 307 80 60,https://lh3.googleusercontent.com/p/AF1QipNuFITZA1ftNEtScPIBF9fnzX0QMZLlWu3jTKnr=s680-w680-h510,,,ChIJPf_-YYMKkEcRU4WuiLFRRss,@47.4137003,7.9717252,"Binzmühlestrasse 13, 8050 Zürich, Switzerland",https://www.egeli-treuhand.ch/,,,,,,,,,,,,,,,,,,
Equinox Treuhand,+41 44 340 01 10,,,,ChIJfeTDf6ygmkcRhaKw3lNjFmM,@47.3252262,8.502356,"Bünishoferstrasse 184, 8706 Meilen, Switzerland",http://www.equinoxtreuhand.ch/,,,,,,,,,,,,,,,,,,
Erbschafts- und Treuhand AG,+41 44 215 24 11,,,,ChIJUYwpMqoLkEcRnVrgdgYj7CU,@47.3882,8.5378904,"Weinbergstrasse 131, 8006 Zürich, Switzerland",,,,,,,,,,,,,,,,,,,
eti treuhand gmbh,+41 44 450 29 90,,,,ChIJWa9RNCcKkEcRqIAxOxd6d_w,@47.3657056,8.5450241,"Goethestrasse 12, 8001 Zürich, Switzerland",,,,,,,,,,,,,,,,,,,
"excent AG, Zürich",+41 44 787 15 04,https://lh3.googleusercontent.com/p/AF1QipNu8jgW6k7P1-LIzytt_D-gyBAieHn9JQbZMP7H=s680-w680-h510,https://lh3.googleusercontent.com/p/AF1QipPUX19ciryp8DPhsvjVTGKzIIsricKlbJzfkMtX=s680-w680-h510,https://lh3.googleusercontent.com/p/AF1QipP4BiR2SBVwNEmSYq3CyZgHdRZZlUtC0AnC0RbQ=s680-w680-h510,ChIJYzHRAxgLkEcRSjKUIVdWqSU,@47.348093,8.5617432,"Seefeldstrasse 287, 8008 Zürich, Switzerland",https://excent.ch/,,,,,,,,,,,,,,,,,,
Expertinum AG - Zürich City,+41 44 344 45 45,,https://lh3.googleusercontent.com/p/AF1QipOtCboYghuSjdCsOn-zCRxAmpxMFQmv7K7ubj2M=s680-w680-h510,,ChIJlc9zKAIKkEcRauY2PjdYCDo,@47.368989,8.5323482,"Am Schanzengraben 25, 8022 Zürich, Switzerland",https://www.expertinum.ch/,,,,,,,,,,,,,,,,,,
EXPERTsuisse AG,+41 58 206 05 05,,,,ChIJbbEnTIUKkEcRmCxiTSWsbV8,@47.3715244,8.5271777,"Stauffacherstrasse 1, 8004 Zürich, Switzerland",https://www.expertsuisse.ch/,,,,,,,,,,,,,,,,,,
FASAN Treuhand,+41 44 283 84 00,,,,ChIJjxkD9zkKkEcRBNhBIV8AIo8,@47.3748681,8.5028905,"Gotthardstrasse 21, 8002 Zürich, Switzerland",,,,,,,,,,,,,,,,,,,
Feldmann Treuhand,+41 44 251 92 72,,,,ChIJSTfo4bWgmkcRZ1yGbPN3dW4,@47.3697818,8.5618886,"Titlisstrasse 32, 8032 Zürich, Switzerland",,,,,,,,,,,,,,,,,,,
Felur Swiss Treuhand AG,+41 44 285 10 88,,,,ChIJj6REBAMKkEcRQBece_rd1KE,@47.3702178,8.5292702,"Sihlamtsstrasse 5, 8002 Zürich, Switzerland",http://www.felur.ch/,,,,,,,,,,,,,,,,,,
Ferax Treuhand AG,+41 44 404 56 56,,,,ChIJq4AkuS0KkEcRcrx-DPL3Vtw,@47.3780131,8.499497,"Letzigraben 89, 8003 Zürich, Switzerland",http://www.ferax.ch/,,,,,,,,,,,,,,,,,,
Fidinter Treuhand AG,+41 44 297 20 50,,,,ChIJQxihxgQKkEcRQYmntNL_M8Q,@47.3740471,8.5284757,"Müllerstrasse 5, 8004 Zürich, Switzerland",http://www.fidinter.ch/,,,,,,,,,,,,,,,,,,
Finanz Treuhand Zürich AG,+41 44 383 44 47,,,,ChIJYyApIk6nmkcRBr-TFyGTjF8,@47.3642881,8.5342511,"Dufourstrasse 90, 8008 Zürich, Switzerland",http://www.ftz.ch/ftz.html,,,,,,,,,,,,,,,,,,
Findea AG | Buchhaltung. Revision. Steuern. | Treuhand in Zürich,+41 52 269 30 55,https://lh5.googleusercontent.com/p/AF1QipPavS9lgsJIIVJ9GdUjrL6JFK6XyoUn0kUGCm2l=w408-h408-k-no,,,ChIJi9UtGkcKkEcRQnrhsfFU3V4,@47.3707106,8.5471529,"Rämistrasse 38, 8001 Zürich, Switzerland",http://www.findea.ch/,,,,,,,,,,,,,,,,,,
Fineac Treuhand Zürich AG,+41 44 727 60 60,,,,ChIJKTFwKAIKkEcRGGfoQKIoQg8,@47.3689984,8.5323336,"Am Schanzengraben 25, 8002 Zürich, Switzerland",https://www.fineac.ch/,,,,,,,,,,,,,,,,,,
Fitis Treuhand AG,+41 44 205 84 70,,,,ChIJg755c_8JkEcRklF70UZwG4s,@47.3658885,8.5341481,"Gotthardstrasse 21, 8002 Zürich, Switzerland",https://www.fitis-treuhand.ch/,,,,,,,,,,,,,,,,,,
FITREVO AG - Finanz Treuhand Vorsorge,+41 79 336 22 24,,,,ChIJyyqbYwIKkEcRIumCbOhmef0,@47.3792922,8.5410138,"Stampfenbachstrasse 32, 8006 Zürich, Switzerland",,,,,,,,,,,,,,,,,,,
Franziska Weber Treuhand GmbH,+41 43 317 99 09,,,,ChIJLS8I2RgKkEcR0ZtqPOHb1YA,@47.3708206,8.5282537,"Weberstrasse 10, 8004 Zürich, Switzerland",http://www.franziskaweber.ch/,,,,,,,,,,,,,,,,,,
Frauenknecht Treuhand GmbH | Digitales & Modernes Treuhand,+41 79 810 66 55,https://lh3.googleusercontent.com/p/AF1QipPSo-eG2t89RX2lRIA6LVcS0sJNSzG_xUoDg6SG=s680-w680-h510,https://lh3.googleusercontent.com/p/AF1QipPv-ppyILMqRz8G9_aMqKGxDlYjy_x6GPGyMh5P=s680-w680-h510,https://lh3.googleusercontent.com/p/AF1QipP_hd8x1nsICJqYQphChn5wA-IuXKYn8WCQyIxw=s680-w680-h510,ChIJna2QA4ULkEcRskSlMcZYed4,@47.3640251,8.5491515,"Mühlebachstrasse 43, 8008 Zürich, Switzerland",https://frauenknecht-treuhand.ch/,,,,,,,,,,,,,,,,,,
Friederich Treuhand + Revisions AG,+41 43 931 73 83,https://lh5.googleusercontent.com/p/AF1QipMLcNXDRn-305ANQjgkAYR6HTobooaL212PrYmJ=w240-h160-k-no,https://lh3.googleusercontent.com/p/AF1QipMIWuKa1RGdBD_q-B-pr7cXhdsQZ3X3N7w_1wMv=s680-w680-h510,https://lh3.googleusercontent.com/p/AF1QipNTaVHg-3c2w0vEcyWC2uJ5ym9vue2QQNARvfWA=s680-w680-h510,ChIJk6vLZ9oLkEcRd0e7V1tftDU,@47.3781433,8.4790239,"Diggelmannstrasse 22, 8047 Zürich, Switzerland",http://www.friederich-treuhand.ch/,,,,,,,,,,,,,,,,,,
Fuchs + Partner Treuhand (Zürich) GmbH,+41 43 210 82 10,,,,ChIJIUbySjMKkEcRNMSH6miRTS8,@47.3719579,8.5399182,"Glockengasse 18, 8001 Zürich, Switzerland",https://fuchspartner.ch/,,,,,,,,,,,,,,,,,,
"Fuchs Treuhand AG, Zürich",+41 44 463 11 18,,,,ChIJyyhHQ5cLkEcRqe6IX_g4ZJU,@47.3700454,8.4659579,"Schaufelbergerstrasse 67, 8055 Zürich, Switzerland",https://www.fuchstreuhand.ch/,,,,,,,,,,,,,,,,,,
Fundus Treuhand AG,+41 44 456 31 31,https://lh5.googleusercontent.com/p/AF1QipN1AgWztVxMosRZVgNMCUz-TcHPgVV_QW9xYP2M=w240-h160-k-no,https://lh3.googleusercontent.com/p/AF1QipN7XNGYXYyYsKjMHco_CgMHMG9ToOBxQgUsCUl_=s680-w680-h510,https://lh3.googleusercontent.com/p/AF1QipP28xQ2eOVeRS1mYcM0pKWVv4SNBSM574ZLN4R-=s680-w680-h510,ChIJ65NsrcwLkEcR7JWTPcq8VHM,@47.38424,8.496909,"Badenerstrasse 567, 8048 Zürich, Switzerland",https://www.fundus.ch/,,,,,,,,,,,,,,,,,,
Gähwiler Ruckstuhl Treuhand AG,+41 44 252 35 44,,,,ChIJO3nTxbGgmkcRd08rApwFskA,@47.3645381,8.49777,"Splügenstrasse 6, 8002 Zürich, Switzerland",https://grtag.com/,,,,,,,,,,,,,,,,,,
GAMMA Treuhand & Consulting AG,+41 43 311 65 08,,,,ChIJVVXlZcsLkEcRf5wKMY_1DOs,@47.3854317,8.4928703,"Badenerstrasse 580, 8048 Zürich, Switzerland",http://www.treuhand-gamma.ch/,,,,,,,,,,,,,,,,,,
Gestoria Treuhand,+41 44 291 30 30,,,,ChIJ3xh6XBAKkEcRlKxXnsoKc_o,@47.3789735,8.5267677,"Militärstrasse 90, 8004 Zürich, Switzerland",http://www.gestoriatreuhand.ch/,,,,,,,,,,,,,,,,,,
Gnehm + Notz Treuhand AG,+41 44 295 90 10,https://lh3.googleusercontent.com/p/AF1QipNUJjc7OQljIV8Da3fAEU1O_7mGuuUaK6onrH0G=s680-w680-h510,,,ChIJETqK_BwKkEcRtAuvU_9ELLg,@47.3704266,8.5243611,"Schöntalstrasse 19, 8004 Zürich, Switzerland",,,,,,,,,,,,,,,,,,,
GTZ Gold Treuhand Zürich AG,+41 44 262 30 87,https://lh3.googleusercontent.com/p/AF1QipPXSeaZaFi8WHl2TonS2zN68RCHpilLMcQm-Ymt=s680-w680-h510,,,ChIJx6G8PVKnmkcRyT_9KrwP7kI,@47.3627737,8.54582,"Dufourstrasse 55, 8008 Zürich, Switzerland",,,,,,,,,,,,,,,,,,,
Gubser Treuhand + Co,+41 44 301 30 30,,,,ChIJHXrYsfgJkEcRLV2hgWPOI-4,@47.3667023,8.5309509,"Bleicherweg 33, 8002 Zürich, Switzerland",,,,,,,,,,,,,,,,,,,
Gütle Max Th. Treuhand AG,+41 44 272 01 11,,,,ChIJ73eHThIKkEcR9nyy_URQejU,@47.3822326,8.5286411,"Ackerstrasse 21, 8005 Zürich, Switzerland",https://guetle.ch/,,,,,,,,,,,,,,,,,,
H.j. Ullmann Treuhand c/o Dr. iur. H. Brumann Steuerberatungs AG,+41 44 350 49 50,,,,ChIJH8g7kwkKkEcRP8DbNiLl598,@47.3804805,8.5404215,"Stampfenbachstrasse 48, 8006 Zürich, Switzerland",,,,,,,,,,,,,,,,,,,
h.u. bühler treuhand,+41 44 350 55 28,,,,ChIJg-mIDmsLkEcRlnPljJIyA0s,@47.3951763,8.5303633,"Rötelstrasse 85, 8037 Zürich, Switzerland",,,,,,,,,,,,,,,,,,,
Häusler Treuhand AG,+41 44 280 68 80,,,,ChIJ4-bIgfsJkEcREQMEfx-JpB0,@47.3706446,8.5260471,"Weberstrasse 10, 8004 Zürich, Switzerland",,,,,,,,,,,,,,,,,,,
Heeg Treuhand GmbH,+41 44 221 23 55,,,,ChIJOzQa8VGnmkcR-UinhSrzTcI,@47.3707313,8.4466068,"Holbeinstrasse 34, 8008 Zürich, Switzerland",http://www.heegtreuhand.ch/en/,,,,,,,,,,,,,,,,,,
HMR Mercator Treuhand AG,+41 44 262 88 88,,,,ChIJP1TYlk2nmkcRzN8P5adk3KU,@47.362557,8.5499695,"Wiesenstrasse 17, 8008 Zürich, Switzerland",http://www.hmr.ch/,,,,,,,,,,,,,,,,,,
HMR Revisionsgesellschaft AG,+41 44 911 05 95,https://lh5.googleusercontent.com/p/AF1QipNFVbRJTCxdhfp5pZNiKxqCAkZptPcgN2d99-Y_=w240-h160-k-no,https://lh3.googleusercontent.com/p/AF1QipMYKSSiJ0u3hZMwRSUZR24O_1slcBA8VQK_jF5A=s680-w680-h510,,ChIJDSPx5VOmmkcRifz0jvKu1P4,@47.3625584,8.5499659,"Wiesenstrasse 17, 8008 Zürich, Switzerland",https://www.hmr-treuhand.ch/de,,,,,,,,,,,,,,,,,,
Honold Treuhand AG,+41 44 421 33 33,https://lh3.googleusercontent.com/p/AF1QipOBEjkYB-xDLtTbEF5lrmzDrG2dTCoxhBlpwRyx=s680-w680-h510,,,ChIJ_e3k4TSnmkcR8r5h2G3picg,@47.3632322,8.5642138,"Sempacherstrasse 15, 8032 Zürich, Switzerland",http://www.honold.com/,,,,,,,,,,,,,,,,,,
Hugger Treuhand AG,+41 44 388 90 10,,,,ChIJ5YvBdFOnmkcR0wlnAZNCoRE,@47.3638771,8.5445211,"Seehofstrasse 6, 8008 Zürich, Switzerland",,,,,,,,,,,,,,,,,,,
Imboden und Partner Treuhand AG,+41 44 291 03 04,,,,ChIJOwXLFxoKkEcRFIbJSsKiqVo,@47.3778934,8.5262597,"Dienerstrasse 18, 8004 Zürich, Switzerland",,,,,,,,,,,,,,,,,,,
Juris Treuhand AG,+41 44 245 10 10,https://lh3.googleusercontent.com/p/AF1QipOk1Ydekytx1GDQ5Z9Miqm9HP_TLEib91587CPn=s680-w680-h510,https://lh3.googleusercontent.com/p/AF1QipOqao_dY9a5B7Mh2dUXR8MYKwneqPlDXHyzBtWg=s680-w680-h510,https://lh3.googleusercontent.com/p/AF1QipMaZw7MARvOhPdcGBIt-G8mmHYlDg-jbPpLzNtr=s680-w680-h510,ChIJGwNxsgMKkEcRpQU2_iqlttE,@47.2763585,8.3659105,"Waaggasse 5, 8001 Zürich, Switzerland",http://www.juris.ch/,,,,,,,,,,,,,,,,,,
KaBO-Treuhand Monika Bobak,+41 44 485 40 00,,,,ChIJ6-YpOv8JkEcRV3MEIKyttD0,@47.3689448,8.5148684,"Tödistrasse 23, 8002 Zürich, Switzerland",,,,,,,,,,,,,,,,,,,
KBT Treuhand AG Zürich,+41 44 250 40 60,,,,ChIJayiQdVKnmkcR-ophYlUoJ1U,@47.3638257,8.5504444,"Kreuzpl. 5, 8032 Zürich, Switzerland",http://www.kbt.ch/,,,,,,,,,,,,,,,,,,
KHP Treuhand GmbH,+41 44 251 34 63,,,,ChIJ5e8xJaqgmkcRtnXLIE1y0ww,@47.3706472,8.5412738,"Nägelihof 3, 8001 Zürich, Switzerland",,,,,,,,,,,,,,,,,,,
KMU Treuhand und Revisions AG,+41 44 377 54 99,,,,ChIJp24LC38LkEcRMYCN9ChYRFU,@47.4220207,8.2151353,"Blumenfeldstrasse 20, 8046 Zürich, Switzerland",,,,,,,,,,,,,,,,,,,
Konrad Althaus Verwaltungsrat und Treuhand GmbH,+41 31 351 87 87,,,,ChIJM7AyV_kJkEcR6rUFC0V7c5M,@47.4211738,7.844117,"Lavaterstrasse 45, 8002 Zürich, Switzerland",https://www.konradalthaus.ch/,,,,,,,,,,,,,,,,,,
KONTOMED Ärztetreuhand AG - Zürich,+41 43 543 97 10,,,,ChIJK0GiX--hmkcR5SUD5Ukq8lo,@47.3673992,8.5489591,"Zeltweg 44, 8032 Zürich, Switzerland",https://www.kontomed-treuhand.ch/,,,,,,,,,,,,,,,,,,
Kratter Treuhand & Consulting,+41 44 462 34 61,,,,ChIJuYgRMCEKkEcR_qllonCneUA,@47.3718956,8.509555,"Saumstrasse 39, 8003 Zürich, Switzerland",http://m.krattertreuhand.ch/,,,,,,,,,,,,,,,,,,
"Kürsteiner Treuhand, Inh. N. Marques-Kürsteiner",+41 44 311 88 97,,,,ChIJ9S04hX8KkEcRkPCX5HMlnfk,@47.4034456,8.5482211,"Schuppisstrasse 2, 8057 Zürich, Switzerland",,,,,,,,,,,,,,,,,,,
L + A Steuerberatung & Treuhand AG,+41 44 438 83 83,https://lh3.googleusercontent.com/p/AF1QipOmiY39Wa4qBozjE2YOG8h04HQbAAWWbdk1EZyu=s680-w680-h510,,,ChIJB-H7vsALkEcRtBrddg9aBxc,@47.3904806,8.4763117,"Badenerstrasse 745, 8048 Zürich, Switzerland",https://www.latreuhand.ch/,,,,,,,,,,,,,,,,,,
Landmann Treuhand GmbH,+41 44 361 14 14,,,,ChIJgQtdxqGgmkcRvxDRLXbuoHY,@47.384682,8.5474074,"Rigistrasse 27, 8006 Zürich, Switzerland",,,,,,,,,,,,,,,,,,,
Lang Treuhand,41434228686,,,,ChIJz6RUPx4KkEcRrFaD0RfFa1U,@47.4966337,8.363744,"Leibachweg 1, 8165 Schleinikon, Switzerland",,,,,,,,,,,,,,,,,,,
LANZ & Partner Treuhand AG,+41 44 406 11 00,,,,ChIJK1WwZdQLkEcRlRJiIWd2rrk,@47.3817783,8.4744296,"Algierstrasse 1, 8048 Zürich, Switzerland",http://lanztreuhand.ch/,,,,,,,,,,,,,,,,,,
Lei Treuhand GmbH,+41 44 371 74 03,https://lh3.googleusercontent.com/p/AF1QipMrw8EWb9LOPrZHkiPbxjeyFH6XHs5FUklTq3PJ=s680-w680-h510,https://lh3.googleusercontent.com/p/AF1QipOiTTGVFmA3hexy0iYgqhsUVVPCs_U5_m8nwq0z=s680-w680-h510,https://lh3.googleusercontent.com/p/AF1QipM19NGEMOUYF2N8RwtI3hw2VOsix-zpcuR4hhiI=s680-w680-h510,ChIJeTnhVfegmkcRhc-Dduzqgr4,@47.3980707,8.5837771,"Stettbachstrasse 177, 8051 Zürich, Switzerland",http://www.lei-treuhand.ch/,,,,,,,,,,,,,,,,,,
"Lenz Treuhand AG, Zürich",+41 44 312 90 00,https://lh3.googleusercontent.com/p/AF1QipPPWKrGBaPypOpFLEeaY2WD-Id-c6wmuxmaD97g=s680-w680-h510,https://lh3.googleusercontent.com/p/AF1QipObjUqwAjWPzi4_9Kfv3Pq2ZGQNhfg3cIsx6Nk1=s680-w680-h510,,ChIJXe-yS1KnmkcRHkDrpIMa2HY,@47.3631342,8.5499925,"Seefeldstrasse 35, 8008 Zürich, Switzerland",https://www.lenz-treuhand.ch/,,,,,,,,,,,,,,,,,,
leosor GmbH Treuhand und Beratung: Die Stube für finanzielle Fragen,+41 44 558 37 78,,,,ChIJX6nOOWGhmkcRwXu4B92KEzc,@47.3722881,8.5421665,"Rindermarkt 14, 8001 Zürich, Switzerland",,,,,,,,,,,,,,,,,,,
Liguster Treuhand und Verwaltungs AG,+41 44 317 80 50,,,,ChIJg7r8CocKkEcR-jrfGCv0H04,@47.407969,8.5403823,"Venusstrasse 23, 8050 Zürich, Switzerland",,,,,,,,,,,,,,,,,,,
Mandatropa AG Verwaltungs- Finanz- u. Treuhandgesellschaft,+41 44 208 99 88,,,,ChIJfU6iQvkLkEcRa5OsVKfDaYA,@47.3769899,8.5367931,"Bahnhofstrasse 106, 8001 Zürich, Switzerland",,,,,,,,,,,,,,,,,,,
Marquart Treuhand AG,+41 44 241 29 22,,,,ChIJh6k9rR0KkEcR8QBymo_7x2M,@47.3701093,8.5373104,"Waaggasse 5, 8001 Zürich, Switzerland",,,,,,,,,,,,,,,,,,,
Martin W. Hobi,+41 44 211 60 60,,,,ChIJ2Uz_6AUKkEcRofsK0qqUJAk,@47.3748595,8.5330153,"Usteristrasse 21, 8001 Zürich, Switzerland",,,,,,,,,,,,,,,,,,,
Marxer Treuhand GmbH,+41 43 344 80 88,,,,ChIJ7ZgqhgAKkEcRR4iVdY7zmKQ,@47.3749498,8.4531888,"Zentralhof, Fraumünsterstrasse 25, 8001 Zürich, Switzerland",,,,,,,,,,,,,,,,,,,
Mathis Treuhand AG,+41 43 399 78 78,,,,ChIJWRaFs2OnmkcRWfCZk8yHWks,@47.3408209,8.4998317,"Zellerstrasse 58, 8038 Zürich, Switzerland",,,,,,,,,,,,,,,,,,,
Mehr-Treuhand AG,+41 43 336 40 40,,,,ChIJ4a31q1OnmkcR3HrjSJuLIbk,@47.3633866,8.5457562,"Dufourstrasse 31, 8008 Zürich, Switzerland",,,,,,,,,,,,,,,,,,,
Merit Treuhand GmbH,+41 44 252 25 71,,,,ChIJOUXB4_gJkEcRsLM5j2be3H4,@47.3650899,8.5293099,"Seestrasse 11, 8002 Zürich, Switzerland",,,,,,,,,,,,,,,,,,,
"Merz Consulting, Treuhand und Steuerberatung",+41 43 539 55 42,,,,ChIJoZKo9sAMkEcRQ24yyOp4tAo,@47.3806851,8.5397734,"Stampfenbachstrasse 57, 8006 Zürich, Switzerland",http://www.merz-consulting.ch/,,,,,,,,,,,,,,,,,,
MG Services AG,+41 44 260 52 50,https://lh3.googleusercontent.com/p/AF1QipOoXdnNec9jAG5_xD0bry4F6L3_CqlPFBnf1JIy=s680-w680-h510,https://lh3.googleusercontent.com/p/AF1QipOPGJAkJBlQDpCY2iyZDE44gL1ZOytW6cFBe5ik=s680-w680-h510,https://lh3.googleusercontent.com/p/AF1QipOPGJAkJBlQDpCY2iyZDE44gL1ZOytW6cFBe5ik=s680-w680-h510,ChIJ2SYROhIKkEcRHFpD2ZHwTTk,@47.3832284,8.5283541,"Josefstrasse 92, 8005 Zürich, Switzerland",http://www.mg-ag.ch/,,,,,,,,,,,,,,,,,,
michel · dünser & partner ag - treuhand- & unternehmensberatung,+41 43 497 35 15,https://lh3.googleusercontent.com/p/AF1QipNbvwSMQ_j9rb5ZGTFgeLPpi18bMvJbfTutjOys=s2732-w2732-h1250-rw,https://lh3.googleusercontent.com/p/AF1QipPBC80sFMmCIY1stWfvhJMntWb60TkAFdOptwVL=s2732-w2732-h1250-rw,https://lh3.googleusercontent.com/p/AF1QipM-uB8QvvAVNINvDfqpICQADxpp7TkTm4wgw_Il=s2732-w2732-h1250-rw,ChIJW6O6NAQKkEcRTw6M_CQuWUg,@47.3744283,8.5329183,"Löwenstrasse 25, 8001 Zürich, Switzerland",https://www.mdp-treuhand.ch/,,,,,,,,,,,,,,,,,,
MS Treuhand & Immobilien GmbH,+41 44 301 06 97,https://lh3.googleusercontent.com/p/AF1QipNRZ1kSYA4f1eyVV9AFCQG4Mq8P7atRMutt7eHd=s680-w680-h510,,,ChIJPdAlGrULkEcRenzTodQiOl0,@47.4097017,8.5423873,"Edisonstrasse 11, 8050 Zürich, Switzerland",,,,,,,,,,,,,,,,,,,
MT Mathys Treuhand AG,+41 44 391 65 95,,,,ChIJayiQdVKnmkcROZS74v8EXgg,@47.359125,8.5678949,"Forchstrasse 239, 8032 Zürich, Switzerland",,,,,,,,,,,,,,,,,,,
MW Treuhand + Steuerberatung - Markus Wiederkehr,+41 43 544 48 48,,,,ChIJLSnu6uILkEcRSpXd2KtilUM,@47.368639,8.5618696,"Bergstrasse 107, 8032 Zürich, Switzerland",http://mwts.ch/,,,,,,,,,,,,,,,,,,
NRS Treuhand AG,+41 44 533 69 00,https://lh3.googleusercontent.com/p/AF1QipOXJIMO4-w7yC0sQK2lk28FpX_73MtWeI3_ldWe=s680-w680-h510,https://lh3.googleusercontent.com/p/AF1QipPLfuJDlskND_tMCwd-iqvvu2rBIhRpSbIUD4hW=s680-w680-h510,https://lh3.googleusercontent.com/p/AF1QipPy9LLEqzEKSSa1p5gTjjo1BdcOoTP1DT1nPZK1=s680-w680-h510,ChIJTdcGjckLkEcRjViZZvYAfbI,@47.287135,8.3659727,"Badenerstrasse 141, 8004 Zürich, Switzerland",http://www.nrs-treuhand.ch/,,,,,,,,,,,,,,,,,,
Numerian Treuhand AG,+41 44 244 13 20,,,,ChIJw9idE5QLkEcRxup7xu5tdzE,@47.3935019,8.4989907,"Gartenstrasse 33, 8002 Zürich, Switzerland",,,,,,,,,,,,,,,,,,,
"OBT AG Zürich - Treuhand, Prüfung, Beratung, Informatik",+41 44 278 45 00,https://lh3.googleusercontent.com/p/AF1QipOsBeCVCZy-5RW9UHqF8Tx6dC9882rchhLBnUiO=s680-w680-h510,https://lh3.googleusercontent.com/p/AF1QipMhw0hlIwpA3-Jdg1dMvIlAM8zZvMYmA36dvxTP=s680-w680-h510,,ChIJs4OLg0YKkEcRlTPeOGDZie8,@47.3929338,8.5127,"Hardturmstrasse 120, 8005 Zürich, Switzerland",,,,,,,,,,,,,,,,,,,
Ostschweizerische Treuhand Zürich AG,+41 44 298 88 44,,,,ChIJMdZzcxkKkEcR4NkSssEVtzE,@47.357506,8.5175073,"Giesshübelstrasse 45, 8045 Zürich, Switzerland",http://www.otgzh.ch/,,,,,,,,,,,,,,,,,,
Parade Treuhand und Revision AG,+41 44 211 21 11,,,,ChIJM32JGP8JkEcRCVLAYAwCmfI,@47.365106,8.5326897,"Tödistrasse 17, 8002 Zürich, Switzerland",,,,,,,,,,,,,,,,,,,
Pfenniger Treuhand Gmbh,,,,,ChIJb1WKKhEKkEcRGsA8zDAyjME,@47.3815678,8.5230245,"Sihlhallenstrasse 28, 8004 Zürich, Switzerland",,,,,,,,,,,,,,,,,,,
"Pragmatix, Büro für Treuhand und Wirtschaftsberatung",+41 44 272 10 60,https://lh3.googleusercontent.com/p/AF1QipOKeznrVVTkAh7gwFBnb0SBj9VmSiRPhf3R9rOP=s680-w680-h510,https://lh3.googleusercontent.com/p/AF1QipOQ3lHlba8AZ0qx3XRq1tB_vNHkRjvMJLXCRXzy=s680-w680-h510,,ChIJFfB4uBMKkEcRB0xV0k3GTuw,@47.3836586,8.5203557,"Luisenstrasse 29, 8005 Zürich, Switzerland",http://www.pragmatix.ch/,,,,,,,,,,,,,,,,,,
PrimeConsulting - Treuhand Zürich,+41 44 554 38 22,https://lh3.googleusercontent.com/p/AF1QipOZhbsHDGRNXaqTpgrAgYcIvGtE4uAnHn8MKzT8=s680-w680-h510,https://lh3.googleusercontent.com/p/AF1QipP0As07-FGXzid5S5_GpRU21pchckRLUBFd5Wpp=s680-w680-h510,https://lh3.googleusercontent.com/p/AF1QipN6jA5om75mMfrCfP3z22KBzWI0gdCMUGM_b0uc=s680-w680-h510,ChIJAUBhp4OhmkcRe1G_aghHi50,@47.4161362,8.5427088,"Schaffhauserstrasse 432, 8050 Zürich, Switzerland",http://www.primeconsulting.ch/,,,,,,,,,,,,,,,,,,
Provida Consulting und Treuhand AG,+41 44 307 85 80,https://lh3.googleusercontent.com/p/AF1QipOE5IU-gPHK7byKNMPI_EsYAv3DREtWoKsZnfT6=s680-w680-h510,,,ChIJGyKXEZ0KkEcRS7XXFpFvpVM,@47.4164763,8.5520769,"Leutschenbachstrasse 55, 8050 Zürich, Switzerland",http://www.provida.ch/,,,,,,,,,,,,,,,,,,
PWB Treuhand AG,+41 43 311 31 31,,,,ChIJ_TVDCJwLkEcRRde5ZwpNJXo,@47.3835856,8.4944461,"Flüelastrasse 7, 8048 Zürich, Switzerland",,,,,,,,,,,,,,,,,,,
Quality Treuhand AG,+41 44 557 20 80,https://lh3.googleusercontent.com/p/AF1QipOJjTzTMUy5ALBW8jBEEX8Cawo1MidZrVCvLiLl=s680-w680-h510,https://lh3.googleusercontent.com/p/AF1QipNI8q8rp12KpyYtksi6DzH1xGVhxCEfI8Smv-IY=s680-w680-h510,https://lh3.googleusercontent.com/p/AF1QipPhbkQEHdRHltKLIm-rVd3zLwn39uvNbzZmymwY=s680-w680-h510,ChIJgaLLAwQKkEcR6WOuL4pmgKk,@47.3640978,8.5499405,"Holbeinstrasse 22, 8008 Zürich, Switzerland",https://www.qualitytreuhand.ch/,,,,,,,,,,,,,,,,,,
Quintessentia Treuhand GmbH,+41 79 769 72 52,,,,ChIJ9enMczAKkEcRNGWU5UgYbrU,@47.3807796,8.5057532,"Norastrasse, 8040 Zürich, Switzerland",http://quintessentia-treuhand.ch/,,,,,,,,,,,,,,,,,,
Real Treuhand,+41 44 363 62 62,https://lh3.googleusercontent.com/p/AF1QipM8hZEfQa3yCWyaCJ3BsDbXpvFVXJVCRNCKXyxb=s680-w680-h510,,,ChIJORqGLHIKkEcRnfv8RIPCWU8,@47.3911598,8.5359206,"Schaffhauserstrasse 43, 8006 Zürich, Switzerland",http://www.schuldenhilfe-zuerich.ch/,,,,,,,,,,,,,,,,,,
Reise-Treuhand AG,+41 44 204 20 10,,,,ChIJVThxsfAJkEcR_xy7_08Kfis,@47.3685804,8.532706,"Beethovenstrasse 49, 8002 Zürich, Switzerland",http://www.reise-treuhand.ch/,,,,,,,,,,,,,,,,,,
René Brunner Treuhand AG,+41 44 301 46 46,,,,ChIJq4NXxYoKkEcR1dtJpbGJmxQ,@47.4087694,8.5270403,"Wehntalerstrasse 218, 8057 Zürich, Switzerland",http://www.brunner-treuhand.com/,,,,,,,,,,,,,,,,,,
Reno Treuhand AG,+41 44 251 33 34,,,,ChIJUxA1wbOgmkcRxPuOw_i8HEs,@47.3693494,8.5550235,"Asylstrasse 17, 8030 Zürich, Switzerland",,,,,,,,,,,,,,,,,,,
Resede Treuhand AG,+41 44 383 46 26,,,,ChIJYyApIk6nmkcRSlbSYF0u_lQ,@47.3693494,8.5550235,"Asylstrasse 17, 8030 Zürich, Switzerland",,,,,,,,,,,,,,,,,,,
"Revex, Treuhand AG Zürich",+41 44 265 66 60,,,,ChIJ00geik2nmkcRM5Sd80v9NWA,@47.3625291,8.5488774,"Zimmergasse 17, 8000 Zürich, Switzerland",,,,,,,,,,,,,,,,,,,
Revinova Treuhand AG,+41 43 960 71 71,,,,ChIJCQB2RIoJkEcRK9LBY8znMCo,@47.3676611,8.5093565,"Friesenbergstrasse 75, 8055 Zürich, Switzerland",,,,,,,,,,,,,,,,,,,
Revit Treuhand AG,+41 79 344 23 12,,,,ChIJHXrYsfgJkEcRQF7HrjOOKfE,@47.3632312,8.5642315,"Sempacherstrasse 15, 8032 Zürich, Switzerland",,,,,,,,,,,,,,,,,,,
Revulta GmbH,+41 41 218 62 33,,https://lh3.googleusercontent.com/p/AF1QipM60NWxwT-NnIHaf6wiVwb-PaN1NKj-jYrBCZh-=s680-w680-h510,https://lh3.googleusercontent.com/p/AF1QipPTPot7pEQVT7KN7kso9QKBbpbXbx-AkEfHbzJp=s680-w680-h510,ChIJA-U2j9ChmkcRKei_U4BizvI,@47.3839101,8.5404243,"Weinbergstrasse 85, 8006 Zürich, Switzerland",http://www.revulta.ch/,,,,,,,,,,,,,,,,,,
RIS & Partner Treuhand AG,+41 44 244 52 52,,https://lh3.googleusercontent.com/p/AF1QipMaykUgLnPVWH3Zr0BTtHUWj-B8BECpu_tu289r=s680-w680-h510,,ChIJ5-hx6t8JkEcRzkoB4T4x1CY,@47.3464896,8.5302421,"Seestrasse 344, 8038 Zürich, Switzerland",,,,,,,,,,,,,,,,,,,
Rovi Treuhand AG,+41 43 311 70 30,,,,ChIJVYnvAccLkEcRGVj0E4ikU4M,@47.4022186,8.4950434,"Limmattalstrasse 206, 8049 Zürich, Switzerland",,,,,,,,,,,,,,,,,,,
Run my Accounts,+41 44 500 46 70,https://www.runmyaccounts.ch/wp-content/uploads/2016/05/Run-my-Accounts-Logo.png,https://www.runmyaccounts.ch/wp-content/uploads/2015/05/Run-my-Accounts-Team-Foto-Wiese-mit-Plakat.jpg,https://pbs.twimg.com/media/FWAbK1HXwAEkYW2.png,ChIJ3Q3biwULkEcRkdiDP55lZuU,@47.2413514,8.4394432,"Grundstrasse 16b, 8712 Stäfa, Switzerland",https://www.runmyaccounts.ch/,,,,,,,,,,,,,,,,,,
Rüsch Treuhand AG,+41 44 252 35 33,,,,ChIJ3XxClbKgmkcRpTeAM3PdKvk,@47.2948517,7.5457847,"Lehfrauenweg 10, 8053 Zürich, Switzerland",http://www.ruesch.ch/,,,,,,,,,,,,,,,,,,
Ryser Treuhand AG,+41 44 454 36 76,,,,ChIJeRJXXh8KkEcRUzx8y2XWxiQ,@47.3681082,8.5327249,"Gartenstrasse 25, 8002 Zürich, Switzerland",,,,,,,,,,,,,,,,,,,
SBC Treuhand AG,+41 44 377 54 77,,,,ChIJcdOZA_oLkEcRqTwWZx42BXk,@47.4220207,8.5013377,"Blumenfeldstrasse 20, 8046 Zürich, Switzerland",,,,,,,,,,,,,,,,,,,
SBT Steuer-Bilanz-Treuhand AG,+41 44 438 60 10,https://lh3.googleusercontent.com/p/AF1QipOThF92r8qsGm4VRVR5XVFH9pPFkzRJgn5Mryqh=s680-w680-h510,,,ChIJCbXgFLcLkEcR4iHdbXUs8B4,@47.3936566,8.4863161,"Max-Högger-Strasse 6, 8048 Zürich, Switzerland",,,,,,,,,,,,,,,,,,,
Scala Treuhand AG,+41 43 399 75 75,,,,ChIJ5bplMd4JkEcRxGeF9g-idOU,@47.3468629,8.5283877,"Etzelstrasse 42, 8038 Zürich, Switzerland",,,,,,,,,,,,,,,,,,,
Schmitt Treuhand,+41 44 383 28 00,https://lh3.googleusercontent.com/p/AF1QipOKFBpk-_YCcNznRv1Dv8x7flHvGkdExLq8OMzW=s680-w680-h510,https://lh3.googleusercontent.com/p/AF1QipNLzMNcDPRKiHfj63g5i0yjlCs9XNw52-qXU74c=s680-w680-h510,,ChIJMRQw07KgmkcR1e2OtX6a1nc,@47.4123815,8.526838,"Klosbachstrasse 7, 8032 Zürich, Switzerland",http://www.schmitt-treuhand.ch/,,,,,,,,,,,,,,,,,,
Schneider Treuhand,+41 44 363 63 94,,,,ChIJeRZ8K1OnmkcRswHFxK5xu7k,@47.382223,8.4730372,"Scheuchzerstrasse 1, 8006 Zürich, Switzerland",,,,,,,,,,,,,,,,,,,
Schneider und Partner Treuhand AG,+41 44 545 21 21,,,,ChIJeRZ8K1OnmkcRswHFxK5xu7k,@47.3659317,8.546769,"Mühlebachstrasse 2, 8008 Zürich, Switzerland",,,,,,,,,,,,,,,,,,,
Schreiber Treuhand GmbH,+41 79 485 00 13,,,,ChIJCfrYa0anmkcR7qdTf5zdNCI,@47.378081,8.5234521,"Kernstrasse 57, 8004 Zürich, Switzerland",,,,,,,,,,,,,,,,,,,
Schweizerische Hotel Treuhand AG,+41 44 508 00 65,https://lh3.googleusercontent.com/p/AF1QipPJQbKaTYkOLzgJlhopRXVj8qt4EBm32RrvXAxI=s680-w680-h510,https://lh3.googleusercontent.com/p/AF1QipPLbzB2Ig25nNVzaGWvxaNUquWj36fZhDC4tbyI=s680-w680-h510,,ChIJV8NV0amgmkcRViYrd29RZPc,@47.3736332,8.5405094,"Limmatquai 84, 8001 Zürich, Switzerland",,,,,,,,,,,,,,,,,,,
Schweizerische Treuhandgesellschaft (Zürich) AG,+41 44 219 78 00,,,,ChIJ9Ur1ImShmkcRH9Z3oSpYubo,@47.3820161,8.545407,"Universitätstrasse 65, 8006 Zürich, Switzerland",,,,,,,,,,,,,,,,,,,
SEEFELD TREUHAND GmbH,+41 44 422 31 32,https://lh3.googleusercontent.com/p/AF1QipOf85bnWCV9hcZdQkDvH_yBH-fe2Z8jU70pk_5d=s680-w680-h510,https://lh3.googleusercontent.com/p/AF1QipNvoGwQpudmBiWa6ilVS9nYrvbk8anIpNCdiT5N=s680-w680-h510,,ChIJM7eDBEanmkcRj2Tc-McICpE,@47.3523177,8.5566546,"Seefeldstrasse 224, 8008 Zürich, Switzerland",http://www.seefeld-treuhand.ch/,,,,,,,,,,,,,,,,,,
Seiler Treuhand AG,+41 44 485 43 85,,,,ChIJb0kmhN8JkEcR2Hr1o2LDCGc,@47.3454642,8.5311046,"Seestrasse 359, 8038 Zürich, Switzerland",https://www.seilertreuhand.ch/,,,,,,,,,,,,,,,,,,
Seismo Treuhand AG,+41 44 262 70 50,,,,ChIJJ5G0YaugmkcRqaLHVt8WHgY,@47.3676305,8.5441202,"Stadelhoferstrasse 40, 8001 Zürich, Switzerland",,,,,,,,,,,,,,,,,,,
Seres Treuhand GmbH,+41 44 387 56 06,,,,ChIJD68xwE2nmkcRfmMvkIvpewQ,@47.372349,8.5116916,"Stauffacherstrasse 16, 8004 Zürich, Switzerland",,,,,,,,,,,,,,,,,,,
SH Trust AG,+41 44 630 49 11,,,,ChIJ7fGJjQkKkEcRmIbZHz_HxKM,@47.3807006,8.5403041,"Stampfenbachstrasse 52, 8006 Zürich, Switzerland",,,,,,,,,,,,,,,,,,,
SHE Treuhand,+41 44 420 16 45,,,,ChIJKY9mjkmnmkcRnbiaqGYZbqE,@47.3597083,8.5584481,"Felsenstrasse 12A, 8008 Zürich, Switzerland",,,,,,,,,,,,,,,,,,,
SHF Treuhand GmbH,+41 44 298 11 77,,,,ChIJm6LtQhsKkEcROxlO5AzaC1M,@47.37323,8.5262502,"Badenerstrasse 41, 8004 Zürich, Switzerland",,,,,,,,,,,,,,,,,,,
Siegrist & Partner Treuhand AG,+41 43 497 25 25,,,,ChIJb_0EAQYKkEcRB-ExnP5Q3n0,@47.3765866,8.5349881,"Löwenstrasse 55, 8001 Zürich, Switzerland",,,,,,,,,,,,,,,,,,,
sigel treuhand,+41 43 844 31 71,,,,ChIJW21WXTynmkcRgUMbzQLJL6c,@47.3627547,8.5502223,"Mühlebachstrasse 72, 8008 Zürich, Switzerland",,,,,,,,,,,,,,,,,,,
Sinco Trust Ltd.,+41 44 461 31 54,,,,ChIJ4cNmmiEKkEcRFFeouOJCNJQ,@47.3726821,8.5129191,"Idastrasse 15, 8003 Zürich, Switzerland",,,,,,,,,,,,,,,,,,,
SmallBusinessAccountants GmbH,+41 43 388 30 31,https://lh3.googleusercontent.com/p/AF1QipMElHkxpdA4P11KJW1wrQazhHVmqQnKFEAG9Ci6=s680-w680-h510,https://lh3.googleusercontent.com/p/AF1QipOn3MZGCG0p65F3JUr7OTjHpQu0gUQSanuuT16O=s680-w680-h510,https://lh3.googleusercontent.com/p/AF1QipNz-uo8t93PfYYV61dCnsu1kca2z7kRy4i5YE_F=s680-w680-h510,ChIJG_xP-QoKkEcRG_2AM-rVBZ8,@47.3840399,8.5404607,"Weinbergstrasse 85, 8006 Zürich, Switzerland",https://www.sba-treuhand.ch/,,,,,,,,,,,,,,,,,,
Sommer & Partner Treuhand GmbH,+41 43 333 15 15,,,,ChIJAwXIvosJkEcR0rbtNlKdyG4,@47.3654471,8.508879,"Im Tiergarten 54, 8055 Zürich, Switzerland",,,,,,,,,,,,,,,,,,,
Spalinger Treuhand,+41 44 366 67 00,,,,ChIJm1e9SHEKkEcRMbUO1UxWFAE,@47.3921668,8.541488,"Im eisernen Zeit 31, 8057 Zürich, Switzerland",http://www.spalingertreuhand.ch/,,,,,,,,,,,,,,,,,,
Steiner Treuhand AG,+41 44 350 48 48,,,,ChIJu7UOgIALkEcRNAVTC8IaAGo,@47.3903143,8.5180389,"Kornhausstrasse 47, 8037 Zürich, Switzerland",https://steiner-treuhand.ch/,,,,,,,,,,,,,,,,,,
Stella Treuhand,+41 44 350 55 80,,,,ChIJl_4lLbihmkcRa3bpUJTJ6TM,@47.3824646,8.5430021,"Scheuchzerstrasse 8, 8006 Zürich, Switzerland",,,,,,,,,,,,,,,,,,,
STM Steuerberatung & Treuhand Mettler AG,+41 44 209 90 60,https://lh3.googleusercontent.com/p/AF1QipOcxnvSjmExDIc4zEAsRlrJT3ZIydB1QuNZUDo=s680-w680-h510,https://lh3.googleusercontent.com/p/AF1QipOqmptlSgya6LAjvaTLgHFE-sA6udaGaz37Gm8=s680-w680-h510,https://lh3.googleusercontent.com/p/AF1QipP5HzjGnu5BYCuC0GhISDzbBWK0ztt_m14PExc=s680-w680-h510,ChIJOx0yAQYKkEcRRUTR3BgXC70,@47.3625199,8.5499819,"Wiesenstrasse 17, 8008 Zürich, Switzerland",https://stmtreuhand.ch/,,,,,,,,,,,,,,,,,,
Strässle Treuhand AG,+41 44 834 15 15,,,,ChIJZ4B5NAsKkEcRXXnApnbp5xg,@47.3931686,8.4337444,"Weinbergstrasse 112, 8006 Zürich, Switzerland",,,,,,,,,,,,,,,,,,,
STS Schweizerische Treuhänder Schule AG,+41 43 333 36 66,https://lh3.googleusercontent.com/p/AF1QipN_jDUgF_iJoI87nWn6epbgPDpL94YzEWKZP0A2=s680-w680-h510,,,ChIJ9Q_U-xEKkEcRtP8KYwQSID0,@47.3820359,8.5294897,"Josefstrasse 53, 8005 Zürich, Switzerland",,,,,,,,,,,,,,,,,,,
STT Schoch Treuhand Team AG,+41 44 298 82 82,,,,ChIJ9TqpYgQKkEcR8FWFa7hXYMM,@47.3728922,8.5309089,"Sihlstrasse 95, 8001 Zürich, Switzerland",,,,,,,,,,,,,,,,,,,
Stutz & Brühlmann Treuhand,+41 44 350 24 80,,,,ChIJ7exUr1OnmkcR6KJMigWB3ro,@47.3634009,8.2182644,"Dufourstrasse 32, 8008 Zürich, Switzerland",http://www.treuhand-stutz.ch/kontakt.htm,,,,,,,,,,,,,,,,,,
Suter & Blum Treuhand AG,+41 77 208 05 55,,,,ChIJRV3cXCIKkEcRht0pE_I1vN0,@47.3590693,8.5291045,"Grütlistrasse 96, 8002 Zürich, Switzerland",http://www.suter-blum.ch/,,,,,,,,,,,,,,,,,,
Swiss Treuhand Siegrist GmbH,+41 43 818 69 15,https://lh3.googleusercontent.com/p/AF1QipOF9spolKpmnWXcdoygVtmu4o4r4RK6HUOUHuNo=s680-w680-h510,https://lh3.googleusercontent.com/p/AF1QipNrSNAi0iYLHaaaMYO4QZ4dmHVudMVoCxxgYxrC=s680-w680-h510,https://lh3.googleusercontent.com/p/AF1QipMSE3mMArDYlOlojtR3Zi70AGWWcBdrCgxfCv2t=s680-w680-h510,ChIJ72R6ZrcLkEcRmGCPHm9YUSc,@47.3832872,8.498961,"Badenerstrasse 551, 8048 Zürich, Switzerland",http://www.treuhandsiegrist.ch/,,,,,,,,,,,,,,,,,,
Tarantino Treuhand AG,+41 43 499 00 29,,,,ChIJjT2K4rSgmkcRKQM7UlGS5Cg,@47.3680306,8.5303897,"Gartenstrasse 25, 8002 Zürich, Switzerland",http://www.tarantino.ch/,,,,,,,,,,,,,,,,,,
TBO Treuhand AG,+41 44 457 15 15,https://lh3.googleusercontent.com/p/AF1QipMYIzeqx-iqFPOdqITEDtUkzHPDVljL-B9okuw_=s680-w680-h510,https://lh3.googleusercontent.com/p/AF1QipNjrzbKbSNEbb9Zmf7UzDp3YIi93c3ZbDIfIoxF=s680-w680-h510,https://lh3.googleusercontent.com/p/AF1QipOOKlleoaEwPt4dR5KAP0ddhDa8B2hBha12bzJl=s680-w680-h510,ChIJzwMsgfUJkEcRhRXyuo7jfoo,@47.3682935,8.5172733,"Steinstrasse 21, 8003 Zürich, Switzerland",https://tbo.ch/,,,,,,,,,,,,,,,,,,
TCL Treuhand Versicherungen & Immobilien AG,+41 44 497 16 16,https://lh3.googleusercontent.com/p/AF1QipNKMJ-WFMp7U_QziKRIow62N_eAmnSlCFLfJqyT=s680-w680-h510,https://lh3.googleusercontent.com/p/AF1QipOEIYehKf_xFA5XQaOvImslrQGoNkeBEhJdYYOg=s680-w680-h510,,ChIJZQuJ0fMLkEcRvZW__zxw3FM,@47.3863587,8.4931643,"Flurstrasse 30, 8048 Zürich, Switzerland",https://www.tcl-ag.ch/,,,,,,,,,,,,,,,,,,
Telos Treuhand GmbH,+41 44 271 77 77,https://lh3.googleusercontent.com/p/AF1QipNDjSgEXrgLKKr5hjBXUlm_4hju0F_0iKsCeUnt=s680-w680-h510,https://lh3.googleusercontent.com/p/AF1QipNWkVjwklgxI7srEyuz5XpbmaoOmvvtL5BsV5g-=s680-w680-h510,,ChIJTScZ5BEKkEcR5s_HIIpj8FY,@47.3812604,8.5296814,"Neugasse 6, 8005 Zürich, Switzerland",http://www.telos.ch/,,,,,,,,,,,,,,,,,,
TO Treuhand Office GmbH,+41 43 488 00 09,https://lh3.googleusercontent.com/p/AF1QipP-ewSRxFiljmHTjSmWaHooFImNAP8VsvX9NLUw=s680-w680-h510,,,ChIJUa2ITeu7mkcRr7MF2SKeJ7g,@47.3854324,8.4928779,"Badenerstrasse 580, 8048 Zürich, Switzerland",https://treuhandoffice.ch/,,,,,,,,,,,,,,,,,,
Treuhand AG für Handel und Industrie,+41 44 215 48 88,,,,ChIJMdJC8KmgmkcRBlGp_2hJIPU,@47.3719835,8.5403885,"Limmatquai 62, 8001 Zürich, Switzerland",http://www.trusty.ch/,,,,,,,,,,,,,,,,,,
Treuhand Campus,+41 43 333 36 66,,,,ChIJ9Q_U-xEKkEcRYHJ-VRwXodM,@47.3842063,8.5260693,"Josefstrasse 53, 8005 Zürich, Switzerland",https://www.treuhandcampus.ch/,,,,,,,,,,,,,,,,,,
Treuhand Domenig,+41 44 241 72 34,,,,ChIJ4eX5TTwKkEcRmz6e2j1jCfg,@47.3812727,8.5143694,"Hohlstrasse 201, 8004 Zürich, Switzerland",,,,,,,,,,,,,,,,,,,
"Treuhand EXPERT Global AG, Zweigniederlassung Zürich",+41 44 225 85 50,,,,ChIJzUi6QAQKkEcRgu2sXYrdtso,@47.3680546,8.5316544,"Stockerstrasse 45, 8002 Zürich, Switzerland",http://www.treuhandexpert.ch/,,,,,,,,,,,,,,,,,,
Treuhand Fred Brugger AG,+41 43 204 00 70,,,,ChIJ6_Zo-GkKkEcR8S6sFy-jHrk,@47.4147548,8.5491006,"Thurgauerstrasse 40, 8050 Zürich, Switzerland",http://www.credor.ch/,,,,,,,,,,,,,,,,,,
Treuhand GmbH,+41 43 497 31 86,,,,ChIJ0bF68w8KkEcRXqo99nmS4-Y,@47.377467,8.4504908,"Lagerstrasse 33, 8004 Zürich, Switzerland",,,,,,,,,,,,,,,,,,,
Treuhand Haupt,+41 43 818 50 90,,,,ChIJFyNeXrGgmkcRVbMq73L9xP0,@47.3705231,8.5559094,"Dolderstrasse 24, 8032 Zürich, Switzerland",http://www.treuhandhaupt.ch/,,,,,,,,,,,,,,,,,,
Treuhand Invector Murbach,+41 43 211 03 73,,,,ChIJqzT-cxoKkEcROAH1sZ_6Bbg,@47.377208,8.5247707,"Hohlstrasse 30, 8004 Zürich, Switzerland",,,,,,,,,,,,,,,,,,,
Treuhand P. Lüönd & Partner AG,+41 44 364 00 10,,,,ChIJ5dFFMSsKkEcRZr2-KWAL38U,@47.3735531,8.4919827,"Langgrütstrasse 112, 8047 Zürich, Switzerland",,,,,,,,,,,,,,,,,,,
Treuhand Sorgenlos AG,+41 44 559 06 00,https://lh3.googleusercontent.com/p/AF1QipOr6rGhL16t61NplIM1RnPXQjaj0zRR9M-h17HG=s680-w680-h510,https://lh3.googleusercontent.com/p/AF1QipMU3rTDMLxOkp9CMdBBSU3rCcPt1MGjN5LWSIGS=s680-w680-h510,https://lh3.googleusercontent.com/p/AF1QipNmFE4ObPdM6FcaFf1hnPGR7MxiOcsrwajILOkk=s680-w680-h510,ChIJP8LCEaULkEcR5lmCYj5TcXo,@47.4090891,8.4804099,"Riedhofstrasse 354, 8049 Zürich, Switzerland",http://treuhand-sorgenlos.ch/,,,,,,,,,,,,,,,,,,
"Treuhand Suisse Sektion Zürich, Geschäftsstelle",+41 44 461 57 70,https://lh3.googleusercontent.com/p/AF1QipPw1W-NfnG7x7mj1C5YxXr6Gq-lsf96kgw5UR2l=s680-w680-h510,https://lh3.googleusercontent.com/p/AF1QipMztUzLq52WYEP44P6vX8FFmwCNlvtLq5wQ45Op=s680-w680-h510,https://lh3.googleusercontent.com/p/AF1QipPY9vVgiAXl-N9Jc3y-bFPeH32YbhtKBZklXs8q=s680-w680-h510,ChIJIxgeiZoKkEcRNsqaEtzkqIs,@47.3772788,8.5302083,"Freischützgasse 3, 8004 Zürich, Switzerland",http://www.treuhandsuisse-zh.ch/,,,,,,,,,,,,,,,,,,
"Treuhand- und Revisionsgesellschaft Mattig-Suter und Partner, Zürich AG",+41 44 422 38 00,https://lh3.googleusercontent.com/p/AF1QipNEATtjObOFSN0nUhbLR54bOLi_3yQQeln1dev7=s680-w680-h510,https://lh3.googleusercontent.com/p/AF1QipNSEvBcDvE-J3RlQCWXbJkz0wMmB_GtbvkorR7E=s680-w680-h510,,ChIJO9zZikinmkcRa3HYJLd3MH4,@47.3603758,8.5303626,"Lavaterstrasse 66, 8002 Zürich, Switzerland",https://mattig.swiss/,,,,,,,,,,,,,,,,,,
TREUHAND-KAMMER Schweizerische Kammer der Wirtschaftsprüfer und Steuerexperten,,,,,ChIJpTixG6igmkcRxssILEwjKAY,@47.3755018,8.5410441,"Limmatquai 120, 8001 Zürich, Switzerland",,,,,,,,,,,,,,,,,,,
Treuhandbüro Graf AG,+41 44 260 23 00,,,,ChIJ2SYROhIKkEcRpXqeQhdbC0k,@47.3831656,8.2425918,"Josefstrasse 92, 8005 Zürich, Switzerland",https://www.treuhandgraf.ch/,,,,,,,,,,,,,,,,,,
Treuhänderverband TREUHAND SUISSE,+41 44 301 16 46,https://lh3.googleusercontent.com/p/AF1QipMbojPKi1iGnwb1rK40vI7uAA9QVZLrlVSggoax=s680-w680-h510,https://lh3.googleusercontent.com/p/AF1QipO7EwXtqrswy_2Yr00KS0FXoqRQwsZEssVU88EU=s680-w680-h510,,ChIJdyBOBHMLkEcR_oVsMB6iKp4,@47.3833943,8.2425908,"Freischützgasse 3, 8004 Zürich, Switzerland",http://www.treuhandsuisse-zh.ch/,,,,,,,,,,,,,,,,,,
Treuhandjobs - Jobplattform von Treuhand Suisse,,,,,ChIJi0-r9Q8KkEcRMhmse2kgi5M,@47.3772905,8.5301862,"Freischützgasse 3, 8004 Zürich, Switzerland",https://treuhandjobportal.ch/,,,,,,,,,,,,,,,,,,
Treuhandservice Kümmerling,+41 43 960 98 41,https://lh3.googleusercontent.com/p/AF1QipMWg6ho0Z2Q0lTya9WfMeW_6-rXIo8X1tRzQ5EQ=s680-w680-h510,https://lh3.googleusercontent.com/p/AF1QipObp5rSmZDGU-61C-P39-sz7oR_lbmXRTUcCxZD=s680-w680-h510,https://lh3.googleusercontent.com/p/AF1QipOnzRL5SDDDOoT3V11OSa5GO4t1OKJI89GIi2n2=s680-w680-h510,ChIJ3wQyzSMKkEcRBfSL1SB_rxI,@47.374261,8.5126634,"Zurlindenstrasse 192, 8003 Zürich, Switzerland",http://www.treuhand-service-zh.ch/,,,,,,,,,,,,,,,,,,
Treuhandzentrum Zürich AG,41444213377,https://lh5.googleusercontent.com/p/AF1QipOMCnj4M9RWsdT5bk_3bq7GUI6OuH3_uFSDfUah=w724-h240-k-no,https://lh3.googleusercontent.com/p/AF1QipM_BK90-bDkVqDZShOJ-sUyiezFVYWtWI0AHXTy=s680-w680-h510,,ChIJVThxsfAJkEcRmEKx1Qk1BwI,@47.3625257,8.5262932,"Brandschenkestrasse 178, 8002 Zürich, Switzerland",http://www.treuhand-zentrum-zuerich.ch/,,,,,,,,,,,,,,,,,,
Trevin AG Treuhand,+41 44 250 47 47,https://lh5.googleusercontent.com/p/AF1QipPHLRqThP3EohL4pb9zh2z-IYovt-OIYqI7u6nf=w239-h160-k-no,https://lh3.googleusercontent.com/p/AF1QipPtenr73No_LM8nJukdLdGmH7zOPA-N7Mg6Ig_v=s680-w680-h510,,ChIJW_s5mE2nmkcRb4GQFtgMI3o,@47.3627547,8.5502223,"Mühlebachstrasse 72, 8008 Zürich, Switzerland",http://www.trevin.ch/,,,,,,,,,,,,,,,,,,
Trewitax Zürich AG,+41 44 225 60 00,https://lh3.googleusercontent.com/p/AF1QipPZsz9Enp1Wk3Ojyosm7TawNsHfA87TreUGs6VK=s680-w680-h510,https://lh3.googleusercontent.com/p/AF1QipP3emi8JALiNNfaEKlMKAgDgvoGMprmbPR1or0L=s680-w680-h510,https://lh3.googleusercontent.com/p/AF1QipMzLmd8uPoL0QEuvmwP7Lq1udhsCP6gIqym2_VH=s680-w680-h510,ChIJtUeQ6Q4KkEcRGhtOeubGx4E,@47.3743057,8.5337217,"Uraniastrasse 18, 8001 Zürich, Switzerland",http://www.trewitax.ch/,,,,,,,,,,,,,,,,,,
Trio Treuhand AG,+41 44 202 02 48,https://lh3.googleusercontent.com/p/AF1QipPPXvd8_1crixok6d2VE33LGRSUgTmg_9aZZhbP=s680-w680-h510,,,ChIJcWuZWPAJkEcRdgiH8XNvX1c,@47.3787781,8.4906713,"Albisriederstrasse 252A, 8047 Zürich, Switzerland",,,,,,,,,,,,,,,,,,,
Troschel Treuhand & Beratungs GmbH - Zürich,+41 44 700 40 09,https://lh3.googleusercontent.com/p/AF1QipMUthLJuscjVpmOHhlbZj2-_EUvWMJECEzfHj_W=s680-w680-h510,https://lh3.googleusercontent.com/p/AF1QipPsb2Y5Q5-O--1oYC4Mr1PDBhOQZGztk7OdmQCT=s680-w680-h510,,ChIJD0lcnGGnmkcRSlAAc1G527I,@47.3640682,8.5564242,"Minervastrasse 119, 8032 Zürich, Switzerland",http://troschel-treuhand.ch/,,,,,,,,,,,,,,,,,,
Trusys Treuhand GmbH,,,,,ChIJibJg6jwLkEcR8rNV8L_vhmM,@47.3846821,8.5429161,"Stapferstrasse 35, 8006 Zürich, Switzerland",http://www.trusys.ch/,,,,,,,,,,,,,,,,,,
Tureva Treuhand AG,+41 44 210 10 75,https://lh3.googleusercontent.com/p/AF1QipMCNMeIabftxaWIo6SyzaIhGciWqnsGruNEMHEH=s680-w680-h510,https://lh3.googleusercontent.com/p/AF1QipMTNI71ht_jplJivhAVUkBOmNYLQ5sQ-pR3RHDO=s680-w680-h510,,ChIJ4dB2qAEKkEcRa6_Kr3gyOD8,@47.3691374,8.5344117,"Talstrasse 39, 8001 Zürich, Switzerland",https://www.tureva-treuhand.ch/,,,,,,,,,,,,,,,,,,
Turicum Treuhand- und Steuerberatungsgesellschaft AG,+41 44 487 34 68,,,,ChIJ8QzZ5IYKkEcRPH7mccX0g9A,@47.4087985,8.5422667,"Baumackerstrasse 24, 8050 Zürich, Switzerland",https://turicum-treuhand.ch/,,,,,,,,,,,,,,,,,,
Ustavag Treuhand AG,+41 44 215 20 80,,,,ChIJCarg6AUKkEcR41byKniGZSE,@47.3758477,8.5335405,"Usteristrasse 23, 8001 Zürich, Switzerland",,,,,,,,,,,,,,,,,,,
UWTH Treuhand AG,+41 43 343 01 87,,,,ChIJT3iRCUYJkEcReg28v19eDUQ,@47.3634976,8.4959988,"Döltschihalde 19, 8055 Zürich, Switzerland",,,,,,,,,,,,,,,,,,,
V. Brunner Treuhand & Steuerberatung GmbH,+41 43 843 90 09,https://lh5.googleusercontent.com/p/AF1QipNrg9VT0tuAAQ9nohU4phGu_81JTA0OJMRg-U9y=w213-h160-k-no,,,ChIJo_8PBHagmkcRX57yzCwdmcY,@47.4195,8.5542553,"Schärenmoosstrasse 77, 8052 Zürich, Switzerland",https://www.vbrunner-treuhand.ch/,,,,,,,,,,,,,,,,,,
Von Graffenried AG Treuhand,+41 44 273 55 55,https://lh3.googleusercontent.com/p/AF1QipOI1V2LDhrU6B3wamciT8bFOo-r_CVahRN4anis=s680-w680-h510,,,ChIJH7OGlUYKkEcRVtsGJsVcicQ,@47.3921166,8.5135581,"Hardturmstrasse 101, 8005 Zürich, Switzerland",,,,,,,,,,,,,,,,,,,
waldmeier treuhand,+41 44 500 27 50,,,,ChIJj5J_C00KkEcRjX15jDlxa18,@47.3984664,8.5001105,"Bäulistrasse, 8049 Zürich, Switzerland",http://www.treuhand-waldmeier.ch/,,,,,,,,,,,,,,,,,,
Wanner Treuhand GmbH,+41 71 688 54 85,,,,ChIJuZBAjsdskEcR93BLZt4CHpE,@47.3701523,7.9856917,"Rütistrasse, 8032 Zürich, Switzerland",http://www.wanner-treuhand.ch/,,,,,,,,,,,,,,,,,,
WEISS TREUHAND,+41 44 533 88 12,https://lh3.googleusercontent.com/p/AF1QipMot1dEpV80ekI1tisICoGtvtw_q7KtYdWfsAV6=s680-w680-h510,,,ChIJQ8JwNaGhmkcR__52dmwuB8s,@47.3701375,7.9856878,"Zeltweg 12, 8032 Zürich, Switzerland",https://www.weiss-treuhand.ch/,,,,,,,,,,,,,,,,,,
Wild Roland Treuhand,+41 44 240 02 89,,,,ChIJV4oqjhoKkEcR4-d0DozsDNk,@47.3766279,8.526335,"Zeughausstrasse 69, 8004 Zürich, Switzerland",,,,,,,,,,,,,,,,,,,
Wirth Treuhand AG,+41 44 289 70 70,,,,ChIJVThxsfAJkEcRMKOx-At5V08,@47.3624861,8.5234439,"Brandschenkestrasse 178, 8002 Zürich, Switzerland",http://www.wirth-treuhand-ag.ch/,,,,,,,,,,,,,,,,,,
Wobmann Treuhand AG,+41 44 363 01 10,https://lh3.googleusercontent.com/p/AF1QipOVl_V9I1UkKusDmraVxx38p3V-5DsNsNnRAvXO=s680-w680-h510,,,ChIJ4QNeD3WhmkcRTTCq1FehWSc,@47.3774437,8.5051257,"Lindenstrasse 28, 8008 Zürich, Switzerland",http://www.wobmanntreuhand.ch/,,,,,,,,,,,,,,,,,,
Würth Treuhand AG,+41 44 404 70 00,https://lh3.googleusercontent.com/p/AF1QipP8tSwrIHRiejkuhX6CWr6wlM002Bqkz4dcAyo=s680-w680-h510,,,ChIJXTWgczAKkEcRghqBzKlQrWg,@47.3805137,8.5049568,"Norastrasse 7, 8004 Zürich, Switzerland",http://www.wuerth-treuhand.ch/,,,,,,,,,,,,,,,,,,
Zollicont Treuhand AG,+41 44 396 31 00,,,,ChIJOezfuhmnmkcRhFFDRk6TBls,@47.3636277,8.5558797,"Minervastrasse 126, 8032 Zürich, Switzerland",https://www.zollicont.ch/,,,,,,,,,,,,,,,,,,
Züger Treuhand AG,+41 55 450 51 00,,,,ChIJwSF1gQgKkEcRnPgppRKob3c,@47.3773121,8.251395,"Bahnhofpl., 8001 Zürich, Switzerland",http://zueger.ch/links/,,,,,,,,,,,,,,,,,,
Zumstein Treuhand,+41 43 300 55 00,,,,ChIJ2xynilsJkEcRLhW5Fw4p-UY,@47.3775409,8.251394,"Birmensdorferstrasse 32, 8004 Zürich, Switzerland",http://www.zumstein-treuhand.ch/,,,,,,,,,,,,,,,,,,
Zürcher Treuhand GmbH,+41 44 552 72 30,https://lh3.googleusercontent.com/p/AF1QipOQjqnfJKGz9tgpNrzM3XXxE-rrh_euGN7HRf7b=s680-w680-h510,https://lh3.googleusercontent.com/p/AF1QipO_B4H1aQLfezQzbvVNfsX42p4pyZgja1xwACvN=s680-w680-h510,https://lh3.googleusercontent.com/p/AF1QipOFJzfH-wDana-gz8ep9kEYhD-IZlrTva5Ekxyw=s680-w680-h510,ChIJGfdh4eynmkcRUnj8bUgQTPA,@47.3512008,"8.2011318,10","Lavaterstrasse 67, 8002 Zürich, Switzerland",https://www.zuerchertreuhand.ch/,,,,,,,,,,,,,,,,,,
Zürich Nord Treuhand GmbH,+41 44 885 06 37,https://lh3.googleusercontent.com/p/AF1QipMEb76ZmvL03WgGmAYl4zXhvGPfxTfSlrnx102A=s680-w680-h510,https://lh3.googleusercontent.com/p/AF1QipNJB_pA-ipYHDTDsDa_864-YcnqZBkvKh1CFsXK=s680-w680-h510,https://lh3.googleusercontent.com/p/AF1QipN5xL51aVY6eUYBRvIo7GSZ9EHj0F8bCyyS8PX7=s680-w680-h510,ChIJg8MUDhmhmkcRNTACcuIeqq8,@47.4301584,8.5428046,"Glattalstrasse 104I, 8052 Zürich, Switzerland",http://www.zn-treuhand.ch/,,,,,,,,,,,,,,,,,,
Zürich Tax & Treuhand GmbH,+41 43 589 69 69,https://lh3.googleusercontent.com/p/AF1QipOqogTc1-dsefxtViBjNz8cINsUQUUPCSDlmd5y=s680-w680-h510,https://lh3.googleusercontent.com/p/AF1QipMLcYk-aghcw0GL7aUbqGZU7PZy9_jcLDSXWTBs=s680-w680-h510,,ChIJs4RkgEkLkEcRU7XCJ3KHB-8,@47.3880956,8.449715,"Badenerstrasse 678, 8048 Zürich, Switzerland",https://zurichtaxtreuhand.ch/,,,,,,,,,,,,,,,,,,
Zürich Treuhand,+41 44 313 15 15,,,,ChIJJeXjRgcLkEcRQcSI_wiiKs8,@47.391373,8.4482169,"Kügeliloostrasse 34, 8050 Zürich, Switzerland",,,,,,,,,,,,,,,,,,,
ZVT Versicherungs-Treuhand GmbH,+41 43 497 31 86,https://lh3.googleusercontent.com/p/AF1QipPmeC210jEDopVn2rJL05fJIbz7DaMv9cPUYwNf=s680-w680-h510,,,ChIJy48oERkKkEcRr94cjc_ZoMc,@47.3774982,8.5304057,"Lagerstrasse 33, 8004 Zürich, Switzerland",,,,,,,,,,,,,,,,,,,
,,,,,,,,,,,,,,,,,,,,,,,,,,,
,,,,,,,,,,,,,,,,,,,,,,,,,,,
,,,,,,,,,,,,,,,,,,,,,,,,,,,
,,,,,,,,,,,,,,,,,,,,,,,,,,,
,,,,,,,,,,,,,,,,,,,,,,,,,,,
,,,,,,,,,,,,,,,,,,,,,,,,,,,
,,,,,,,,,,,,,,,,,,,,,,,,,,,
,,,,,,,,,,,,,,,,,,,,,,,,,,,
,,,,,,,,,,,,,,,,,,,,,,,,,,,
,,,,,,,,,,,,,,,,,,,,,,,,,,,
,,,,,,,,,,,,,,,,,,,,,,,,,,,
,,,,,,,,,,,,,,,,,,,,,,,,,,,
,,,,,,,,,,,,,,,,,,,,,,,,,,,
,,,,,,,,,,,,,,,,,,,,,,,,,,,
,,,,,,,,,,,,,,,,,,,,,,,,,,,
,,,,,,,,,,,,,,,,,,,,,,,,,,,
,,,,,,,,,,,,,,,,,,,,,,,,,,,
,,,,,,,,,,,,,,,,,,,,,,,,,,,
,,,,,,,,,,,,,,,,,,,,,,,,,,,
,,,,,,,,,,,,,,,,,,,,,,,,,,,
,,,,,,,,,,,,,,,,,,,,,,,,,,,
,,,,,,,,,,,,,,,,,,,,,,,,,,,
,,,,,,,,,,,,,,,,,,,,,,,,,,,
,,,,,,,,,,,,,,,,,,,,,,,,,,,
,,,,,,,,,,,,,,,,,,,,,,,,,,,
,,,,,,,,,,,,,,,,,,,,,,,,,,,
,,,,,,,,,,,,,,,,,,,,,,,,,,,
,,,,,,,,,,,,,,,,,,,,,,,,,,,
,,,,,,,,,,,,,,,,,,,,,,,,,,,
,,,,,,,,,,,,,,,,,,,,,,,,,,,
,,,,,,,,,,,,,,,,,,,,,,,,,,,
,,,,,,,,,,,,,,,,,,,,,,,,,,,
,,,,,,,,,,,,,,,,,,,,,,,,,,,
,,,,,,,,,,,,,,,,,,,,,,,,,,,
,,,,,,,,,,,,,,,,,,,,,,,,,,,
,,,,,,,,,,,,,,,,,,,,,,,,,,,
,,,,,,,,,,,,,,,,,,,,,,,,,,,
,,,,,,,,,,,,,,,,,,,,,,,,,,,
,,,,,,,,,,,,,,,,,,,,,,,,,,,
,,,,,,,,,,,,,,,,,,,,,,,,,,,
,,,,,,,,,,,,,,,,,,,,,,,,,,,
,,,,,,,,,,,,,,,,,,,,,,,,,,,
,,,,,,,,,,,,,,,,,,,,,,,,,,,
,,,,,,,,,,,,,,,,,,,,,,,,,,,
,,,,,,,,,,,,,,,,,,,,,,,,,,,
,,,,,,,,,,,,,,,,,,,,,,,,,,,
,,,,,,,,,,,,,,,,,,,,,,,,,,,
,,,,,,,,,,,,,,,,,,,,,,,,,,,
,,,,,,,,,,,,,,,,,,,,,,,,,,,
,,,,,,,,,,,,,,,,,,,,,,,,,,,
,,,,,,,,,,,,,,,,,,,,,,,,,,,
,,,,,,,,,,,,,,,,,,,,,,,,,,,
,,,,,,,,,,,,,,,,,,,,,,,,,,,
,,,,,,,,,,,,,,,,,,,,,,,,,,,
,,,,,,,,,,,,,,,,,,,,,,,,,,,
,,,,,,,,,,,,,,,,,,,,,,,,,,,
,,,,,,,,,,,,,,,,,,,,,,,,,,,
,,,,,,,,,,,,,,,,,,,,,,,,,,,
,,,,,,,,,,,,,,,,,,,,,,,,,,,
,,,,,,,,,,,,,,,,,,,,,,,,,,,
,,,,,,,,,,,,,,,,,,,,,,,,,,,
,,,,,,,,,,,,,,,,,,,,,,,,,,,
,,,,,,,,,,,,,,,,,,,,,,,,,,,
,,,,,,,,,,,,,,,,,,,,,,,,,,,
,,,,,,,,,,,,,,,,,,,,,,,,,,,
,,,,,,,,,,,,,,,,,,,,,,,,,,,
,,,,,,,,,,,,,,,,,,,,,,,,,,,
,,,,,,,,,,,,,,,,,,,,,,,,,,,
,,,,,,,,,,,,,,,,,,,,,,,,,,,
,,,,,,,,,,,,,,,,,,,,,,,,,,,
,,,,,,,,,,,,,,,,,,,,,,,,,,,
,,,,,,,,,,,,,,,,,,,,,,,,,,,
,,,,,,,,,,,,,,,,,,,,,,,,,,,
,,,,,,,,,,,,,,,,,,,,,,,,,,,
,,,,,,,,,,,,,,,,,,,,,,,,,,,
,,,,,,,,,,,,,,,,,,,,,,,,,,,
,,,,,,,,,,,,,,,,,,,,,,,,,,,
,,,,,,,,,,,,,,,,,,,,,,,,,,,
,,,,,,,,,,,,,,,,,,,,,,,,,,,
,,,,,,,,,,,,,,,,,,,,,,,,,,,
,,,,,,,,,,,,,,,,,,,,,,,,,,,
,,,,,,,,,,,,,,,,,,,,,,,,,,,
,,,,,,,,,,,,,,,,,,,,,,,,,,,
,,,,,,,,,,,,,,,,,,,,,,,,,,,
,,,,,,,,,,,,,,,,,,,,,,,,,,,
,,,,,,,,,,,,,,,,,,,,,,,,,,,
,,,,,,,,,,,,,,,,,,,,,,,,,,,
,,,,,,,,,,,,,,,,,,,,,,,,,,,
,,,,,,,,,,,,,,,,,,,,,,,,,,,
,,,,,,,,,,,,,,,,,,,,,,,,,,,
,,,,,,,,,,,,,,,,,,,,,,,,,,,
,,,,,,,,,,,,,,,,,,,,,,,,,,,
,,,,,,,,,,,,,,,,,,,,,,,,,,,
,,,,,,,,,,,,,,,,,,,,,,,,,,,
,,,,,,,,,,,,,,,,,,,,,,,,,,,
,,,,,,,,,,,,,,,,,,,,,,,,,,,
,,,,,,,,,,,,,,,,,,,,,,,,,,,
,,,,,,,,,,,,,,,,,,,,,,,,,,,
,,,,,,,,,,,,,,,,,,,,,,,,,,,
,,,,,,,,,,,,,,,,,,,,,,,,,,,
,,,,,,,,,,,,,,,,,,,,,,,,,,,
,,,,,,,,,,,,,,,,,,,,,,,,,,,
,,,,,,,,,,,,,,,,,,,,,,,,,,,
,,,,,,,,,,,,,,,,,,,,,,,,,,,
,,,,,,,,,,,,,,,,,,,,,,,,,,,
,,,,,,,,,,,,,,,,,,,,,,,,,,,
,,,,,,,,,,,,,,,,,,,,,,,,,,,
,,,,,,,,,,,,,,,,,,,,,,,,,,,
,,,,,,,,,,,,,,,,,,,,,,,,,,,
,,,,,,,,,,,,,,,,,,,,,,,,,,,
,,,,,,,,,,,,,,,,,,,,,,,,,,,
,,,,,,,,,,,,,,,,,,,,,,,,,,,
,,,,,,,,,,,,,,,,,,,,,,,,,,,
,,,,,,,,,,,,,,,,,,,,,,,,,,,
,,,,,,,,,,,,,,,,,,,,,,,,,,,
,,,,,,,,,,,,,,,,,,,,,,,,,,,
,,,,,,,,,,,,,,,,,,,,,,,,,,,
,,,,,,,,,,,,,,,,,,,,,,,,,,,
,,,,,,,,,,,,,,,,,,,,,,,,,,,
,,,,,,,,,,,,,,,,,,,,,,,,,,,
,,,,,,,,,,,,,,,,,,,,,,,,,,,
,,,,,,,,,,,,,,,,,,,,,,,,,,,
,,,,,,,,,,,,,,,,,,,,,,,,,,,
,,,,,,,,,,,,,,,,,,,,,,,,,,,
,,,,,,,,,,,,,,,,,,,,,,,,,,,
,,,,,,,,,,,,,,,,,,,,,,,,,,,
,,,,,,,,,,,,,,,,,,,,,,,,,,,
,,,,,,,,,,,,,,,,,,,,,,,,,,,
,,,,,,,,,,,,,,,,,,,,,,,,,,,
,,,,,,,,,,,,,,,,,,,,,,,,,,,
,,,,,,,,,,,,,,,,,,,,,,,,,,,
,,,,,,,,,,,,,,,,,,,,,,,,,,,
,,,,,,,,,,,,,,,,,,,,,,,,,,,
,,,,,,,,,,,,,,,,,,,,,,,,,,,
,,,,,,,,,,,,,,,,,,,,,,,,,,,
,,,,,,,,,,,,,,,,,,,,,,,,,,,
,,,,,,,,,,,,,,,,,,,,,,,,,,,
,,,,,,,,,,,,,,,,,,,,,,,,,,,
,,,,,,,,,,,,,,,,,,,,,,,,,,,
,,,,,,,,,,,,,,,,,,,,,,,,,,,
,,,,,,,,,,,,,,,,,,,,,,,,,,,
,,,,,,,,,,,,,,,,,,,,,,,,,,,
,,,,,,,,,,,,,,,,,,,,,,,,,,,
,,,,,,,,,,,,,,,,,,,,,,,,,,,
,,,,,,,,,,,,,,,,,,,,,,,,,,,
,,,,,,,,,,,,,,,,,,,,,,,,,,,
,,,,,,,,,,,,,,,,,,,,,,,,,,,
,,,,,,,,,,,,,,,,,,,,,,,,,,,
,,,,,,,,,,,,,,,,,,,,,,,,,,,
,,,,,,,,,,,,,,,,,,,,,,,,,,,
,,,,,,,,,,,,,,,,,,,,,,,,,,,
,,,,,,,,,,,,,,,,,,,,,,,,,,,
,,,,,,,,,,,,,,,,,,,,,,,,,,,
,,,,,,,,,,,,,,,,,,,,,,,,,,,
,,,,,,,,,,,,,,,,,,,,,,,,,,,
,,,,,,,,,,,,,,,,,,,,,,,,,,,
,,,,,,,,,,,,,,,,,,,,,,,,,,,
,,,,,,,,,,,,,,,,,,,,,,,,,,,
,,,,,,,,,,,,,,,,,,,,,,,,,,,
,,,,,,,,,,,,,,,,,,,,,,,,,,,
,,,,,,,,,,,,,,,,,,,,,,,,,,,
,,,,,,,,,,,,,,,,,,,,,,,,,,,
,,,,,,,,,,,,,,,,,,,,,,,,,,,
,,,,,,,,,,,,,,,,,,,,,,,,,,,
,,,,,,,,,,,,,,,,,,,,,,,,,,,
,,,,,,,,,,,,,,,,,,,,,,,,,,,
,,,,,,,,,,,,,,,,,,,,,,,,,,,
,,,,,,,,,,,,,,,,,,,,,,,,,,,
,,,,,,,,,,,,,,,,,,,,,,,,,,,
,,,,,,,,,,,,,,,,,,,,,,,,,,,
,,,,,,,,,,,,,,,,,,,,,,,,,,,
,,,,,,,,,,,,,,,,,,,,,,,,,,,
,,,,,,,,,,,,,,,,,,,,,,,,,,,
,,,,,,,,,,,,,,,,,,,,,,,,,,,
,,,,,,,,,,,,,,,,,,,,,,,,,,,
,,,,,,,,,,,,,,,,,,,,,,,,,,,
,,,,,,,,,,,,,,,,,,,,,,,,,,,
,,,,,,,,,,,,,,,,,,,,,,,,,,,
,,,,,,,,,,,,,,,,,,,,,,,,,,,
,,,,,,,,,,,,,,,,,,,,,,,,,,,
,,,,,,,,,,,,,,,,,,,,,,,,,,,
,,,,,,,,,,,,,,,,,,,,,,,,,,,
,,,,,,,,,,,,,,,,,,,,,,,,,,,
,,,,,,,,,,,,,,,,,,,,,,,,,,,
,,,,,,,,,,,,,,,,,,,,,,,,,,,
,,,,,,,,,,,,,,,,,,,,,,,,,,,
,,,,,,,,,,,,,,,,,,,,,,,,,,,
,,,,,,,,,,,,,,,,,,,,,,,,,,,
,,,,,,,,,,,,,,,,,,,,,,,,,,,
,,,,,,,,,,,,,,,,,,,,,,,,,,,
,,,,,,,,,,,,,,,,,,,,,,,,,,,
,,,,,,,,,,,,,,,,,,,,,,,,,,,
,,,,,,,,,,,,,,,,,,,,,,,,,,,
,,,,,,,,,,,,,,,,,,,,,,,,,,,
,,,,,,,,,,,,,,,,,,,,,,,,,,,
,,,,,,,,,,,,,,,,,,,,,,,,,,,
,,,,,,,,,,,,,,,,,,,,,,,,,,,
,,,,,,,,,,,,,,,,,,,,,,,,,,,
,,,,,,,,,,,,,,,,,,,,,,,,,,,
,,,,,,,,,,,,,,,,,,,,,,,,,,,
,,,,,,,,,,,,,,,,,,,,,,,,,,,
,,,,,,,,,,,,,,,,,,,,,,,,,,,
,,,,,,,,,,,,,,,,,,,,,,,,,,,
,,,,,,,,,,,,,,,,,,,,,,,,,,,
,,,,,,,,,,,,,,,,,,,,,,,,,,,
,,,,,,,,,,,,,,,,,,,,,,,,,,,
,,,,,,,,,,,,,,,,,,,,,,,,,,,
,,,,,,,,,,,,,,,,,,,,,,,,,,,
,,,,,,,,,,,,,,,,,,,,,,,,,,,
,,,,,,,,,,,,,,,,,,,,,,,,,,,
,,,,,,,,,,,,,,,,,,,,,,,,,,,
,,,,,,,,,,,,,,,,,,,,,,,,,,,
,,,,,,,,,,,,,,,,,,,,,,,,,,,
,,,,,,,,,,,,,,,,,,,,,,,,,,,
,,,,,,,,,,,,,,,,,,,,,,,,,,,
,,,,,,,,,,,,,,,,,,,,,,,,,,,
,,,,,,,,,,,,,,,,,,,,,,,,,,,
,,,,,,,,,,,,,,,,,,,,,,,,,,,
,,,,,,,,,,,,,,,,,,,,,,,,,,,
,,,,,,,,,,,,,,,,,,,,,,,,,,,
,,,,,,,,,,,,,,,,,,,,,,,,,,,
,,,,,,,,,,,,,,,,,,,,,,,,,,,
,,,,,,,,,,,,,,,,,,,,,,,,,,,
,,,,,,,,,,,,,,,,,,,,,,,,,,,
,,,,,,,,,,,,,,,,,,,,,,,,,,,
,,,,,,,,,,,,,,,,,,,,,,,,,,,
,,,,,,,,,,,,,,,,,,,,,,,,,,,
,,,,,,,,,,,,,,,,,,,,,,,,,,,
,,,,,,,,,,,,,,,,,,,,,,,,,,,
,,,,,,,,,,,,,,,,,,,,,,,,,,,
,,,,,,,,,,,,,,,,,,,,,,,,,,,
,,,,,,,,,,,,,,,,,,,,,,,,,,,
,,,,,,,,,,,,,,,,,,,,,,,,,,,
,,,,,,,,,,,,,,,,,,,,,,,,,,,
,,,,,,,,,,,,,,,,,,,,,,,,,,,
,,,,,,,,,,,,,,,,,,,,,,,,,,,
,,,,,,,,,,,,,,,,,,,,,,,,,,,
,,,,,,,,,,,,,,,,,,,,,,,,,,,
,,,,,,,,,,,,,,,,,,,,,,,,,,,
,,,,,,,,,,,,,,,,,,,,,,,,,,,
,,,,,,,,,,,,,,,,,,,,,,,,,,,
,,,,,,,,,,,,,,,,,,,,,,,,,,,
,,,,,,,,,,,,,,,,,,,,,,,,,,,
,,,,,,,,,,,,,,,,,,,,,,,,,,,
,,,,,,,,,,,,,,,,,,,,,,,,,,,
,,,,,,,,,,,,,,,,,,,,,,,,,,,
,,,,,,,,,,,,,,,,,,,,,,,,,,,
,,,,,,,,,,,,,,,,,,,,,,,,,,,
,,,,,,,,,,,,,,,,,,,,,,,,,,,
,,,,,,,,,,,,,,,,,,,,,,,,,,,
,,,,,,,,,,,,,,,,,,,,,,,,,,,
,,,,,,,,,,,,,,,,,,,,,,,,,,,
,,,,,,,,,,,,,,,,,,,,,,,,,,,
,,,,,,,,,,,,,,,,,,,,,,,,,,,
,,,,,,,,,,,,,,,,,,,,,,,,,,,
,,,,,,,,,,,,,,,,,,,,,,,,,,,
,,,,,,,,,,,,,,,,,,,,,,,,,,,
,,,,,,,,,,,,,,,,,,,,,,,,,,,
,,,,,,,,,,,,,,,,,,,,,,,,,,,
,,,,,,,,,,,,,,,,,,,,,,,,,,,
,,,,,,,,,,,,,,,,,,,,,,,,,,,
,,,,,,,,,,,,,,,,,,,,,,,,,,,
,,,,,,,,,,,,,,,,,,,,,,,,,,,
,,,,,,,,,,,,,,,,,,,,,,,,,,,
,,,,,,,,,,,,,,,,,,,,,,,,,,,
,,,,,,,,,,,,,,,,,,,,,,,,,,,
,,,,,,,,,,,,,,,,,,,,,,,,,,,
,,,,,,,,,,,,,,,,,,,,,,,,,,,
,,,,,,,,,,,,,,,,,,,,,,,,,,,
,,,,,,,,,,,,,,,,,,,,,,,,,,,
,,,,,,,,,,,,,,,,,,,,,,,,,,,
,,,,,,,,,,,,,,,,,,,,,,,,,,,
,,,,,,,,,,,,,,,,,,,,,,,,,,,
,,,,,,,,,,,,,,,,,,,,,,,,,,,
,,,,,,,,,,,,,,,,,,,,,,,,,,,
,,,,,,,,,,,,,,,,,,,,,,,,,,,
,,,,,,,,,,,,,,,,,,,,,,,,,,,
,,,,,,,,,,,,,,,,,,,,,,,,,,,
,,,,,,,,,,,,,,,,,,,,,,,,,,,
,,,,,,,,,,,,,,,,,,,,,,,,,,,
,,,,,,,,,,,,,,,,,,,,,,,,,,,
,,,,,,,,,,,,,,,,,,,,,,,,,,,
,,,,,,,,,,,,,,,,,,,,,,,,,,,
,,,,,,,,,,,,,,,,,,,,,,,,,,,
,,,,,,,,,,,,,,,,,,,,,,,,,,,
,,,,,,,,,,,,,,,,,,,,,,,,,,,
,,,,,,,,,,,,,,,,,,,,,,,,,,,
,,,,,,,,,,,,,,,,,,,,,,,,,,,
,,,,,,,,,,,,,,,,,,,,,,,,,,,
,,,,,,,,,,,,,,,,,,,,,,,,,,,
,,,,,,,,,,,,,,,,,,,,,,,,,,,
,,,,,,,,,,,,,,,,,,,,,,,,,,,
,,,,,,,,,,,,,,,,,,,,,,,,,,,
,,,,,,,,,,,,,,,,,,,,,,,,,,,
,,,,,,,,,,,,,,,,,,,,,,,,,,,
,,,,,,,,,,,,,,,,,,,,,,,,,,,
,,,,,,,,,,,,,,,,,,,,,,,,,,,
,,,,,,,,,,,,,,,,,,,,,,,,,,,
,,,,,,,,,,,,,,,,,,,,,,,,,,,
,,,,,,,,,,,,,,,,,,,,,,,,,,,
,,,,,,,,,,,,,,,,,,,,,,,,,,,
,,,,,,,,,,,,,,,,,,,,,,,,,,,
,,,,,,,,,,,,,,,,,,,,,,,,,,,
,,,,,,,,,,,,,,,,,,,,,,,,,,,
,,,,,,,,,,,,,,,,,,,,,,,,,,,
,,,,,,,,,,,,,,,,,,,,,,,,,,,
,,,,,,,,,,,,,,,,,,,,,,,,,,,
,,,,,,,,,,,,,,,,,,,,,,,,,,,
,,,,,,,,,,,,,,,,,,,,,,,,,,,
,,,,,,,,,,,,,,,,,,,,,,,,,,,
,,,,,,,,,,,,,,,,,,,,,,,,,,,
,,,,,,,,,,,,,,,,,,,,,,,,,,,
,,,,,,,,,,,,,,,,,,,,,,,,,,,
,,,,,,,,,,,,,,,,,,,,,,,,,,,
,,,,,,,,,,,,,,,,,,,,,,,,,,,
,,,,,,,,,,,,,,,,,,,,,,,,,,,
,,,,,,,,,,,,,,,,,,,,,,,,,,,
,,,,,,,,,,,,,,,,,,,,,,,,,,,
,,,,,,,,,,,,,,,,,,,,,,,,,,,
,,,,,,,,,,,,,,,,,,,,,,,,,,,
,,,,,,,,,,,,,,,,,,,,,,,,,,,
,,,,,,,,,,,,,,,,,,,,,,,,,,,
,,,,,,,,,,,,,,,,,,,,,,,,,,,
,,,,,,,,,,,,,,,,,,,,,,,,,,,
,,,,,,,,,,,,,,,,,,,,,,,,,,,
,,,,,,,,,,,,,,,,,,,,,,,,,,,
,,,,,,,,,,,,,,,,,,,,,,,,,,,
,,,,,,,,,,,,,,,,,,,,,,,,,,,
,,,,,,,,,,,,,,,,,,,,,,,,,,,
,,,,,,,,,,,,,,,,,,,,,,,,,,,
,,,,,,,,,,,,,,,,,,,,,,,,,,,
,,,,,,,,,,,,,,,,,,,,,,,,,,,
,,,,,,,,,,,,,,,,,,,,,,,,,,,
,,,,,,,,,,,,,,,,,,,,,,,,,,,
,,,,,,,,,,,,,,,,,,,,,,,,,,,
,,,,,,,,,,,,,,,,,,,,,,,,,,,
,,,,,,,,,,,,,,,,,,,,,,,,,,,
,,,,,,,,,,,,,,,,,,,,,,,,,,,
,,,,,,,,,,,,,,,,,,,,,,,,,,,
,,,,,,,,,,,,,,,,,,,,,,,,,,,
,,,,,,,,,,,,,,,,,,,,,,,,,,,
,,,,,,,,,,,,,,,,,,,,,,,,,,,
,,,,,,,,,,,,,,,,,,,,,,,,,,,
,,,,,,,,,,,,,,,,,,,,,,,,,,,
,,,,,,,,,,,,,,,,,,,,,,,,,,,
,,,,,,,,,,,,,,,,,,,,,,,,,,,
,,,,,,,,,,,,,,,,,,,,,,,,,,,
,,,,,,,,,,,,,,,,,,,,,,,,,,,
,,,,,,,,,,,,,,,,,,,,,,,,,,,
,,,,,,,,,,,,,,,,,,,,,,,,,,,
,,,,,,,,,,,,,,,,,,,,,,,,,,,
,,,,,,,,,,,,,,,,,,,,,,,,,,,
,,,,,,,,,,,,,,,,,,,,,,,,,,,
,,,,,,,,,,,,,,,,,,,,,,,,,,,
,,,,,,,,,,,,,,,,,,,,,,,,,,,
,,,,,,,,,,,,,,,,,,,,,,,,,,,
,,,,,,,,,,,,,,,,,,,,,,,,,,,
,,,,,,,,,,,,,,,,,,,,,,,,,,,
,,,,,,,,,,,,,,,,,,,,,,,,,,,
,,,,,,,,,,,,,,,,,,,,,,,,,,,
,,,,,,,,,,,,,,,,,,,,,,,,,,,
,,,,,,,,,,,,,,,,,,,,,,,,,,,
,,,,,,,,,,,,,,,,,,,,,,,,,,,
,,,,,,,,,,,,,,,,,,,,,,,,,,,
,,,,,,,,,,,,,,,,,,,,,,,,,,,
,,,,,,,,,,,,,,,,,,,,,,,,,,,
,,,,,,,,,,,,,,,,,,,,,,,,,,,
,,,,,,,,,,,,,,,,,,,,,,,,,,,
,,,,,,,,,,,,,,,,,,,,,,,,,,,
,,,,,,,,,,,,,,,,,,,,,,,,,,,
,,,,,,,,,,,,,,,,,,,,,,,,,,,
,,,,,,,,,,,,,,,,,,,,,,,,,,,
,,,,,,,,,,,,,,,,,,,,,,,,,,,
,,,,,,,,,,,,,,,,,,,,,,,,,,,
,,,,,,,,,,,,,,,,,,,,,,,,,,,
,,,,,,,,,,,,,,,,,,,,,,,,,,,
,,,,,,,,,,,,,,,,,,,,,,,,,,,
,,,,,,,,,,,,,,,,,,,,,,,,,,,
,,,,,,,,,,,,,,,,,,,,,,,,,,,
,,,,,,,,,,,,,,,,,,,,,,,,,,,
,,,,,,,,,,,,,,,,,,,,,,,,,,,
,,,,,,,,,,,,,,,,,,,,,,,,,,,
,,,,,,,,,,,,,,,,,,,,,,,,,,,
,,,,,,,,,,,,,,,,,,,,,,,,,,,
,,,,,,,,,,,,,,,,,,,,,,,,,,,
,,,,,,,,,,,,,,,,,,,,,,,,,,,
,,,,,,,,,,,,,,,,,,,,,,,,,,,
,,,,,,,,,,,,,,,,,,,,,,,,,,,
,,,,,,,,,,,,,,,,,,,,,,,,,,,
,,,,,,,,,,,,,,,,,,,,,,,,,,,
,,,,,,,,,,,,,,,,,,,,,,,,,,,
,,,,,,,,,,,,,,,,,,,,,,,,,,,
,,,,,,,,,,,,,,,,,,,,,,,,,,,
,,,,,,,,,,,,,,,,,,,,,,,,,,,
,,,,,,,,,,,,,,,,,,,,,,,,,,,
,,,,,,,,,,,,,,,,,,,,,,,,,,,
,,,,,,,,,,,,,,,,,,,,,,,,,,,
,,,,,,,,,,,,,,,,,,,,,,,,,,,
,,,,,,,,,,,,,,,,,,,,,,,,,,,
,,,,,,,,,,,,,,,,,,,,,,,,,,,
,,,,,,,,,,,,,,,,,,,,,,,,,,,
,,,,,,,,,,,,,,,,,,,,,,,,,,,
,,,,,,,,,,,,,,,,,,,,,,,,,,,
,,,,,,,,,,,,,,,,,,,,,,,,,,,
,,,,,,,,,,,,,,,,,,,,,,,,,,,
,,,,,,,,,,,,,,,,,,,,,,,,,,,
,,,,,,,,,,,,,,,,,,,,,,,,,,,
,,,,,,,,,,,,,,,,,,,,,,,,,,,
,,,,,,,,,,,,,,,,,,,,,,,,,,,
,,,,,,,,,,,,,,,,,,,,,,,,,,,
,,,,,,,,,,,,,,,,,,,,,,,,,,,
,,,,,,,,,,,,,,,,,,,,,,,,,,,
,,,,,,,,,,,,,,,,,,,,,,,,,,,
,,,,,,,,,,,,,,,,,,,,,,,,,,,
,,,,,,,,,,,,,,,,,,,,,,,,,,,
,,,,,,,,,,,,,,,,,,,,,,,,,,,
,,,,,,,,,,,,,,,,,,,,,,,,,,,
,,,,,,,,,,,,,,,,,,,,,,,,,,,
,,,,,,,,,,,,,,,,,,,,,,,,,,,
,,,,,,,,,,,,,,,,,,,,,,,,,,,
,,,,,,,,,,,,,,,,,,,,,,,,,,,
,,,,,,,,,,,,,,,,,,,,,,,,,,,
,,,,,,,,,,,,,,,,,,,,,,,,,,,
,,,,,,,,,,,,,,,,,,,,,,,,,,,
,,,,,,,,,,,,,,,,,,,,,,,,,,,
,,,,,,,,,,,,,,,,,,,,,,,,,,,
,,,,,,,,,,,,,,,,,,,,,,,,,,,
,,,,,,,,,,,,,,,,,,,,,,,,,,,
,,,,,,,,,,,,,,,,,,,,,,,,,,,
,,,,,,,,,,,,,,,,,,,,,,,,,,,
,,,,,,,,,,,,,,,,,,,,,,,,,,,
,,,,,,,,,,,,,,,,,,,,,,,,,,,
,,,,,,,,,,,,,,,,,,,,,,,,,,,
,,,,,,,,,,,,,,,,,,,,,,,,,,,
,,,,,,,,,,,,,,,,,,,,,,,,,,,
,,,,,,,,,,,,,,,,,,,,,,,,,,,
,,,,,,,,,,,,,,,,,,,,,,,,,,,
,,,,,,,,,,,,,,,,,,,,,,,,,,,
,,,,,,,,,,,,,,,,,,,,,,,,,,,
,,,,,,,,,,,,,,,,,,,,,,,,,,,
,,,,,,,,,,,,,,,,,,,,,,,,,,,
,,,,,,,,,,,,,,,,,,,,,,,,,,,
,,,,,,,,,,,,,,,,,,,,,,,,,,,
,,,,,,,,,,,,,,,,,,,,,,,,,,,
,,,,,,,,,,,,,,,,,,,,,,,,,,,
,,,,,,,,,,,,,,,,,,,,,,,,,,,
,,,,,,,,,,,,,,,,,,,,,,,,,,,
,,,,,,,,,,,,,,,,,,,,,,,,,,,
,,,,,,,,,,,,,,,,,,,,,,,,,,,
,,,,,,,,,,,,,,,,,,,,,,,,,,,
,,,,,,,,,,,,,,,,,,,,,,,,,,,
,,,,,,,,,,,,,,,,,,,,,,,,,,,
,,,,,,,,,,,,,,,,,,,,,,,,,,,
,,,,,,,,,,,,,,,,,,,,,,,,,,,
,,,,,,,,,,,,,,,,,,,,,,,,,,,
,,,,,,,,,,,,,,,,,,,,,,,,,,,
,,,,,,,,,,,,,,,,,,,,,,,,,,,
,,,,,,,,,,,,,,,,,,,,,,,,,,,
,,,,,,,,,,,,,,,,,,,,,,,,,,,
,,,,,,,,,,,,,,,,,,,,,,,,,,,
,,,,,,,,,,,,,,,,,,,,,,,,,,,
,,,,,,,,,,,,,,,,,,,,,,,,,,,
,,,,,,,,,,,,,,,,,,,,,,,,,,,
,,,,,,,,,,,,,,,,,,,,,,,,,,,
,,,,,,,,,,,,,,,,,,,,,,,,,,,
,,,,,,,,,,,,,,,,,,,,,,,,,,,
,,,,,,,,,,,,,,,,,,,,,,,,,,,
,,,,,,,,,,,,,,,,,,,,,,,,,,,
,,,,,,,,,,,,,,,,,,,,,,,,,,,
,,,,,,,,,,,,,,,,,,,,,,,,,,,
,,,,,,,,,,,,,,,,,,,,,,,,,,,
,,,,,,,,,,,,,,,,,,,,,,,,,,,
,,,,,,,,,,,,,,,,,,,,,,,,,,,
,,,,,,,,,,,,,,,,,,,,,,,,,,,
,,,,,,,,,,,,,,,,,,,,,,,,,,,
,,,,,,,,,,,,,,,,,,,,,,,,,,,
,,,,,,,,,,,,,,,,,,,,,,,,,,,
,,,,,,,,,,,,,,,,,,,,,,,,,,,
,,,,,,,,,,,,,,,,,,,,,,,,,,,
,,,,,,,,,,,,,,,,,,,,,,,,,,,
,,,,,,,,,,,,,,,,,,,,,,,,,,,
,,,,,,,,,,,,,,,,,,,,,,,,,,,
,,,,,,,,,,,,,,,,,,,,,,,,,,,
,,,,,,,,,,,,,,,,,,,,,,,,,,,
,,,,,,,,,,,,,,,,,,,,,,,,,,,
,,,,,,,,,,,,,,,,,,,,,,,,,,,
,,,,,,,,,,,,,,,,,,,,,,,,,,,
,,,,,,,,,,,,,,,,,,,,,,,,,,,
,,,,,,,,,,,,,,,,,,,,,,,,,,,
,,,,,,,,,,,,,,,,,,,,,,,,,,,
,,,,,,,,,,,,,,,,,,,,,,,,,,,
,,,,,,,,,,,,,,,,,,,,,,,,,,,
,,,,,,,,,,,,,,,,,,,,,,,,,,,
,,,,,,,,,,,,,,,,,,,,,,,,,,,
,,,,,,,,,,,,,,,,,,,,,,,,,,,
,,,,,,,,,,,,,,,,,,,,,,,,,,,
,,,,,,,,,,,,,,,,,,,,,,,,,,,
,,,,,,,,,,,,,,,,,,,,,,,,,,,
,,,,,,,,,,,,,,,,,,,,,,,,,,,
,,,,,,,,,,,,,,,,,,,,,,,,,,,
,,,,,,,,,,,,,,,,,,,,,,,,,,,
,,,,,,,,,,,,,,,,,,,,,,,,,,,
,,,,,,,,,,,,,,,,,,,,,,,,,,,
,,,,,,,,,,,,,,,,,,,,,,,,,,,
,,,,,,,,,,,,,,,,,,,,,,,,,,,
,,,,,,,,,,,,,,,,,,,,,,,,,,,
,,,,,,,,,,,,,,,,,,,,,,,,,,,
,,,,,,,,,,,,,,,,,,,,,,,,,,,
,,,,,,,,,,,,,,,,,,,,,,,,,,,
,,,,,,,,,,,,,,,,,,,,,,,,,,,
,,,,,,,,,,,,,,,,,,,,,,,,,,,
,,,,,,,,,,,,,,,,,,,,,,,,,,,
,,,,,,,,,,,,,,,,,,,,,,,,,,,
,,,,,,,,,,,,,,,,,,,,,,,,,,,
,,,,,,,,,,,,,,,,,,,,,,,,,,,
,,,,,,,,,,,,,,,,,,,,,,,,,,,
,,,,,,,,,,,,,,,,,,,,,,,,,,,
,,,,,,,,,,,,,,,,,,,,,,,,,,,
,,,,,,,,,,,,,,,,,,,,,,,,,,,
,,,,,,,,,,,,,,,,,,,,,,,,,,,
,,,,,,,,,,,,,,,,,,,,,,,,,,,
,,,,,,,,,,,,,,,,,,,,,,,,,,,
,,,,,,,,,,,,,,,,,,,,,,,,,,,
,,,,,,,,,,,,,,,,,,,,,,,,,,,
,,,,,,,,,,,,,,,,,,,,,,,,,,,
,,,,,,,,,,,,,,,,,,,,,,,,,,,
,,,,,,,,,,,,,,,,,,,,,,,,,,,
,,,,,,,,,,,,,,,,,,,,,,,,,,,
,,,,,,,,,,,,,,,,,,,,,,,,,,,
,,,,,,,,,,,,,,,,,,,,,,,,,,,
,,,,,,,,,,,,,,,,,,,,,,,,,,,
,,,,,,,,,,,,,,,,,,,,,,,,,,,
,,,,,,,,,,,,,,,,,,,,,,,,,,,
,,,,,,,,,,,,,,,,,,,,,,,,,,,
,,,,,,,,,,,,,,,,,,,,,,,,,,,
,,,,,,,,,,,,,,,,,,,,,,,,,,,
,,,,,,,,,,,,,,,,,,,,,,,,,,,
,,,,,,,,,,,,,,,,,,,,,,,,,,,
,,,,,,,,,,,,,,,,,,,,,,,,,,,
,,,,,,,,,,,,,,,,,,,,,,,,,,,
,,,,,,,,,,,,,,,,,,,,,,,,,,,
,,,,,,,,,,,,,,,,,,,,,,,,,,,
,,,,,,,,,,,,,,,,,,,,,,,,,,,
,,,,,,,,,,,,,,,,,,,,,,,,,,,
,,,,,,,,,,,,,,,,,,,,,,,,,,,
,,,,,,,,,,,,,,,,,,,,,,,,,,,
,,,,,,,,,,,,,,,,,,,,,,,,,,,
,,,,,,,,,,,,,,,,,,,,,,,,,,,
,,,,,,,,,,,,,,,,,,,,,,,,,,,
,,,,,,,,,,,,,,,,,,,,,,,,,,,
,,,,,,,,,,,,,,,,,,,,,,,,,,,
,,,,,,,,,,,,,,,,,,,,,,,,,,,
,,,,,,,,,,,,,,,,,,,,,,,,,,,
,,,,,,,,,,,,,,,,,,,,,,,,,,,
,,,,,,,,,,,,,,,,,,,,,,,,,,,
,,,,,,,,,,,,,,,,,,,,,,,,,,,
,,,,,,,,,,,,,,,,,,,,,,,,,,,
,,,,,,,,,,,,,,,,,,,,,,,,,,,
,,,,,,,,,,,,,,,,,,,,,,,,,,,
,,,,,,,,,,,,,,,,,,,,,,,,,,,
,,,,,,,,,,,,,,,,,,,,,,,,,,,
,,,,,,,,,,,,,,,,,,,,,,,,,,,
,,,,,,,,,,,,,,,,,,,,,,,,,,,
,,,,,,,,,,,,,,,,,,,,,,,,,,,
,,,,,,,,,,,,,,,,,,,,,,,,,,,
,,,,,,,,,,,,,,,,,,,,,,,,,,,
,,,,,,,,,,,,,,,,,,,,,,,,,,,
,,,,,,,,,,,,,,,,,,,,,,,,,,,
,,,,,,,,,,,,,,,,,,,,,,,,,,,
,,,,,,,,,,,,,,,,,,,,,,,,,,,
,,,,,,,,,,,,,,,,,,,,,,,,,,,
,,,,,,,,,,,,,,,,,,,,,,,,,,,
,,,,,,,,,,,,,,,,,,,,,,,,,,,
,,,,,,,,,,,,,,,,,,,,,,,,,,,
,,,,,,,,,,,,,,,,,,,,,,,,,,,
,,,,,,,,,,,,,,,,,,,,,,,,,,,
,,,,,,,,,,,,,,,,,,,,,,,,,,,
,,,,,,,,,,,,,,,,,,,,,,,,,,,
,,,,,,,,,,,,,,,,,,,,,,,,,,,
,,,,,,,,,,,,,,,,,,,,,,,,,,,
,,,,,,,,,,,,,,,,,,,,,,,,,,,
,,,,,,,,,,,,,,,,,,,,,,,,,,,
,,,,,,,,,,,,,,,,,,,,,,,,,,,
,,,,,,,,,,,,,,,,,,,,,,,,,,,
,,,,,,,,,,,,,,,,,,,,,,,,,,,
,,,,,,,,,,,,,,,,,,,,,,,,,,,
,,,,,,,,,,,,,,,,,,,,,,,,,,,
,,,,,,,,,,,,,,,,,,,,,,,,,,,
,,,,,,,,,,,,,,,,,,,,,,,,,,,
,,,,,,,,,,,,,,,,,,,,,,,,,,,
,,,,,,,,,,,,,,,,,,,,,,,,,,,
,,,,,,,,,,,,,,,,,,,,,,,,,,,
,,,,,,,,,,,,,,,,,,,,,,,,,,,
,,,,,,,,,,,,,,,,,,,,,,,,,,,
,,,,,,,,,,,,,,,,,,,,,,,,,,,
,,,,,,,,,,,,,,,,,,,,,,,,,,,
,,,,,,,,,,,,,,,,,,,,,,,,,,,
,,,,,,,,,,,,,,,,,,,,,,,,,,,
,,,,,,,,,,,,,,,,,,,,,,,,,,,
,,,,,,,,,,,,,,,,,,,,,,,,,,,
,,,,,,,,,,,,,,,,,,,,,,,,,,,
,,,,,,,,,,,,,,,,,,,,,,,,,,,
,,,,,,,,,,,,,,,,,,,,,,,,,,,
,,,,,,,,,,,,,,,,,,,,,,,,,,,
,,,,,,,,,,,,,,,,,,,,,,,,,,,
,,,,,,,,,,,,,,,,,,,,,,,,,,,
,,,,,,,,,,,,,,,,,,,,,,,,,,,
,,,,,,,,,,,,,,,,,,,,,,,,,,,
,,,,,,,,,,,,,,,,,,,,,,,,,,,
,,,,,,,,,,,,,,,,,,,,,,,,,,,
,,,,,,,,,,,,,,,,,,,,,,,,,,,
,,,,,,,,,,,,,,,,,,,,,,,,,,,
,,,,,,,,,,,,,,,,,,,,,,,,,,,
,,,,,,,,,,,,,,,,,,,,,,,,,,,
,,,,,,,,,,,,,,,,,,,,,,,,,,,
,,,,,,,,,,,,,,,,,,,,,,,,,,,
,,,,,,,,,,,,,,,,,,,,,,,,,,,
,,,,,,,,,,,,,,,,,,,,,,,,,,,
,,,,,,,,,,,,,,,,,,,,,,,,,,,
,,,,,,,,,,,,,,,,,,,,,,,,,,,
,,,,,,,,,,,,,,,,,,,,,,,,,,,
,,,,,,,,,,,,,,,,,,,,,,,,,,,
,,,,,,,,,,,,,,,,,,,,,,,,,,,
,,,,,,,,,,,,,,,,,,,,,,,,,,,
,,,,,,,,,,,,,,,,,,,,,,,,,,,
,,,,,,,,,,,,,,,,,,,,,,,,,,,
,,,,,,,,,,,,,,,,,,,,,,,,,,,
,,,,,,,,,,,,,,,,,,,,,,,,,,,
,,,,,,,,,,,,,,,,,,,,,,,,,,,
,,,,,,,,,,,,,,,,,,,,,,,,,,,
,,,,,,,,,,,,,,,,,,,,,,,,,,,
,,,,,,,,,,,,,,,,,,,,,,,,,,,
,,,,,,,,,,,,,,,,,,,,,,,,,,,
,,,,,,,,,,,,,,,,,,,,,,,,,,,
,,,,,,,,,,,,,,,,,,,,,,,,,,,
,,,,,,,,,,,,,,,,,,,,,,,,,,,
,,,,,,,,,,,,,,,,,,,,,,,,,,,
,,,,,,,,,,,,,,,,,,,,,,,,,,,
,,,,,,,,,,,,,,,,,,,,,,,,,,,
,,,,,,,,,,,,,,,,,,,,,,,,,,,
,,,,,,,,,,,,,,,,,,,,,,,,,,,
,,,,,,,,,,,,,,,,,,,,,,,,,,,
,,,,,,,,,,,,,,,,,,,,,,,,,,,
,,,,,,,,,,,,,,,,,,,,,,,,,,,
,,,,,,,,,,,,,,,,,,,,,,,,,,,
,,,,,,,,,,,,,,,,,,,,,,,,,,,
,,,,,,,,,,,,,,,,,,,,,,,,,,,
,,,,,,,,,,,,,,,,,,,,,,,,,,,
,,,,,,,,,,,,,,,,,,,,,,,,,,,
,,,,,,,,,,,,,,,,,,,,,,,,,,,
,,,,,,,,,,,,,,,,,,,,,,,,,,,
,,,,,,,,,,,,,,,,,,,,,,,,,,,
,,,,,,,,,,,,,,,,,,,,,,,,,,,
,,,,,,,,,,,,,,,,,,,,,,,,,,,
,,,,,,,,,,,,,,,,,,,,,,,,,,,
,,,,,,,,,,,,,,,,,,,,,,,,,,,
,,,,,,,,,,,,,,,,,,,,,,,,,,,
,,,,,,,,,,,,,,,,,,,,,,,,,,,
,,,,,,,,,,,,,,,,,,,,,,,,,,,
,,,,,,,,,,,,,,,,,,,,,,,,,,,
,,,,,,,,,,,,,,,,,,,,,,,,,,,
,,,,,,,,,,,,,,,,,,,,,,,,,,,
,,,,,,,,,,,,,,,,,,,,,,,,,,,
,,,,,,,,,,,,,,,,,,,,,,,,,,,
,,,,,,,,,,,,,,,,,,,,,,,,,,,
,,,,,,,,,,,,,,,,,,,,,,,,,,,
,,,,,,,,,,,,,,,,,,,,,,,,,,,
,,,,,,,,,,,,,,,,,,,,,,,,,,,
,,,,,,,,,,,,,,,,,,,,,,,,,,,
,,,,,,,,,,,,,,,,,,,,,,,,,,,
,,,,,,,,,,,,,,,,,,,,,,,,,,,
,,,,,,,,,,,,,,,,,,,,,,,,,,,
,,,,,,,,,,,,,,,,,,,,,,,,,,,
,,,,,,,,,,,,,,,,,,,,,,,,,,,
,,,,,,,,,,,,,,,,,,,,,,,,,,,
,,,,,,,,,,,,,,,,,,,,,,,,,,,
,,,,,,,,,,,,,,,,,,,,,,,,,,,
,,,,,,,,,,,,,,,,,,,,,,,,,,,
,,,,,,,,,,,,,,,,,,,,,,,,,,,
,,,,,,,,,,,,,,,,,,,,,,,,,,,
,,,,,,,,,,,,,,,,,,,,,,,,,,,
,,,,,,,,,,,,,,,,,,,,,,,,,,,
,,,,,,,,,,,,,,,,,,,,,,,,,,,
,,,,,,,,,,,,,,,,,,,,,,,,,,,
,,,,,,,,,,,,,,,,,,,,,,,,,,,
,,,,,,,,,,,,,,,,,,,,,,,,,,,
,,,,,,,,,,,,,,,,,,,,,,,,,,,
,,,,,,,,,,,,,,,,,,,,,,,,,,,
,,,,,,,,,,,,,,,,,,,,,,,,,,,
,,,,,,,,,,,,,,,,,,,,,,,,,,,
,,,,,,,,,,,,,,,,,,,,,,,,,,,
,,,,,,,,,,,,,,,,,,,,,,,,,,,
,,,,,,,,,,,,,,,,,,,,,,,,,,,
,,,,,,,,,,,,,,,,,,,,,,,,,,,
,,,,,,,,,,,,,,,,,,,,,,,,,,,
,,,,,,,,,,,,,,,,,,,,,,,,,,,
,,,,,,,,,,,,,,,,,,,,,,,,,,,
,,,,,,,,,,,,,,,,,,,,,,,,,,,
,,,,,,,,,,,,,,,,,,,,,,,,,,,
,,,,,,,,,,,,,,,,,,,,,,,,,,,
,,,,,,,,,,,,,,,,,,,,,,,,,,,
,,,,,,,,,,,,,,,,,,,,,,,,,,,
,,,,,,,,,,,,,,,,,,,,,,,,,,,
,,,,,,,,,,,,,,,,,,,,,,,,,,,
,,,,,,,,,,,,,,,,,,,,,,,,,,,
,,,,,,,,,,,,,,,,,,,,,,,,,,,
,,,,,,,,,,,,,,,,,,,,,,,,,,,
,,,,,,,,,,,,,,,,,,,,,,,,,,,
,,,,,,,,,,,,,,,,,,,,,,,,,,,
,,,,,,,,,,,,,,,,,,,,,,,,,,,
,,,,,,,,,,,,,,,,,,,,,,,,,,,
,,,,,,,,,,,,,,,,,,,,,,,,,,,
,,,,,,,,,,,,,,,,,,,,,,,,,,,
,,,,,,,,,,,,,,,,,,,,,,,,,,,
,,,,,,,,,,,,,,,,,,,,,,,,,,,
,,,,,,,,,,,,,,,,,,,,,,,,,,,
,,,,,,,,,,,,,,,,,,,,,,,,,,,
,,,,,,,,,,,,,,,,,,,,,,,,,,,
,,,,,,,,,,,,,,,,,,,,,,,,,,,
,,,,,,,,,,,,,,,,,,,,,,,,,,,
,,,,,,,,,,,,,,,,,,,,,,,,,,,
,,,,,,,,,,,,,,,,,,,,,,,,,,,
,,,,,,,,,,,,,,,,,,,,,,,,,,,
,,,,,,,,,,,,,,,,,,,,,,,,,,,
,,,,,,,,,,,,,,,,,,,,,,,,,,,
,,,,,,,,,,,,,,,,,,,,,,,,,,,
,,,,,,,,,,,,,,,,,,,,,,,,,,,
,,,,,,,,,,,,,,,,,,,,,,,,,,,
,,,,,,,,,,,,,,,,,,,,,,,,,,,
,,,,,,,,,,,,,,,,,,,,,,,,,,,
,,,,,,,,,,,,,,,,,,,,,,,,,,,
,,,,,,,,,,,,,,,,,,,,,,,,,,,
,,,,,,,,,,,,,,,,,,,,,,,,,,,
,,,,,,,,,,,,,,,,,,,,,,,,,,,
,,,,,,,,,,,,,,,,,,,,,,,,,,,
,,,,,,,,,,,,,,,,,,,,,,,,,,,
,,,,,,,,,,,,,,,,,,,,,,,,,,,
,,,,,,,,,,,,,,,,,,,,,,,,,,,
,,,,,,,,,,,,,,,,,,,,,,,,,,,
,,,,,,,,,,,,,,,,,,,,,,,,,,,
,,,,,,,,,,,,,,,,,,,,,,,,,,,
,,,,,,,,,,,,,,,,,,,,,,,,,,,
,,,,,,,,,,,,,,,,,,,,,,,,,,,
,,,,,,,,,,,,,,,,,,,,,,,,,,,
,,,,,,,,,,,,,,,,,,,,,,,,,,,
,,,,,,,,,,,,,,,,,,,,,,,,,,,